<?xml version="1.0" encoding="UTF-8"?>
<osm generator="VMB">
  <MetaInfo format_version="1" map_version="2" validation_version="1"/>
  <node id="44" lat="" lon="">
    <tag k="local_x" v="4.0165"/>
    <tag k="local_y" v="-5.8183"/>
    <tag k="ele" v="0"/>
  </node>
  <node id="45" lat="" lon="">
    <tag k="local_x" v="4.7864"/>
    <tag k="local_y" v="-5.8183"/>
    <tag k="ele" v="0"/>
  </node>
  <node id="47" lat="" lon="">
    <tag k="local_x" v="4.0075"/>
    <tag k="local_y" v="-6.1624"/>
    <tag k="ele" v="0"/>
  </node>
  <node id="48" lat="" lon="">
    <tag k="local_x" v="4.8046"/>
    <tag k="local_y" v="-6.1624"/>
    <tag k="ele" v="0"/>
  </node>
  <node id="51" lat="" lon="">
    <tag k="local_x" v="5.4598"/>
    <tag k="local_y" v="-5.8059"/>
    <tag k="ele" v="0"/>
  </node>
  <node id="53" lat="" lon="">
    <tag k="local_x" v="5.4929"/>
    <tag k="local_y" v="-6.1624"/>
    <tag k="ele" v="0"/>
  </node>
  <node id="56" lat="" lon="">
    <tag k="local_x" v="6.1813"/>
    <tag k="local_y" v="-5.8001"/>
    <tag k="ele" v="0"/>
  </node>
  <node id="58" lat="" lon="">
    <tag k="local_x" v="6.2628"/>
    <tag k="local_y" v="-6.1534"/>
    <tag k="ele" v="0"/>
  </node>
  <node id="61" lat="" lon="">
    <tag k="local_x" v="6.4077"/>
    <tag k="local_y" v="-5.6914"/>
    <tag k="ele" v="0"/>
  </node>
  <node id="63" lat="" lon="">
    <tag k="local_x" v="6.5255"/>
    <tag k="local_y" v="-5.4922"/>
    <tag k="ele" v="0"/>
  </node>
  <node id="64" lat="" lon="">
    <tag k="local_x" v="6.5798"/>
    <tag k="local_y" v="-5.2205"/>
    <tag k="ele" v="0"/>
  </node>
  <node id="65" lat="" lon="">
    <tag k="local_x" v="6.5798"/>
    <tag k="local_y" v="-6.0356"/>
    <tag k="ele" v="0"/>
  </node>
  <node id="67" lat="" lon="">
    <tag k="local_x" v="6.8063"/>
    <tag k="local_y" v="-5.8092"/>
    <tag k="ele" v="0"/>
  </node>
  <node id="68" lat="" lon="">
    <tag k="local_x" v="6.924"/>
    <tag k="local_y" v="-5.5465"/>
    <tag k="ele" v="0"/>
  </node>
  <node id="69" lat="" lon="">
    <tag k="local_x" v="6.9421"/>
    <tag k="local_y" v="-5.2205"/>
    <tag k="ele" v="0"/>
  </node>
  <node id="71" lat="" lon="">
    <tag k="local_x" v="6.5673"/>
    <tag k="local_y" v="-3.4805"/>
    <tag k="ele" v="0"/>
  </node>
  <node id="73" lat="" lon="">
    <tag k="local_x" v="6.9135"/>
    <tag k="local_y" v="-3.4899"/>
    <tag k="ele" v="0"/>
  </node>
  <node id="76" lat="" lon="">
    <tag k="local_x" v="6.4831"/>
    <tag k="local_y" v="-3.2747"/>
    <tag k="ele" v="0"/>
  </node>
  <node id="78" lat="" lon="">
    <tag k="local_x" v="6.2772"/>
    <tag k="local_y" v="-3.1437"/>
    <tag k="ele" v="0"/>
  </node>
  <node id="79" lat="" lon="">
    <tag k="local_x" v="6.1182"/>
    <tag k="local_y" v="-3.0782"/>
    <tag k="ele" v="0"/>
  </node>
  <node id="80" lat="" lon="">
    <tag k="local_x" v="6.876"/>
    <tag k="local_y" v="-3.1998"/>
    <tag k="ele" v="0"/>
  </node>
  <node id="82" lat="" lon="">
    <tag k="local_x" v="6.7076"/>
    <tag k="local_y" v="-2.9753"/>
    <tag k="ele" v="0"/>
  </node>
  <node id="83" lat="" lon="">
    <tag k="local_x" v="6.4082"/>
    <tag k="local_y" v="-2.7507"/>
    <tag k="ele" v="0"/>
  </node>
  <node id="84" lat="" lon="">
    <tag k="local_x" v="6.0995"/>
    <tag k="local_y" v="-2.7133"/>
    <tag k="ele" v="0"/>
  </node>
  <node id="86" lat="" lon="">
    <tag k="local_x" v="5.7252"/>
    <tag k="local_y" v="-2.7039"/>
    <tag k="ele" v="0"/>
  </node>
  <node id="88" lat="" lon="">
    <tag k="local_x" v="5.5662"/>
    <tag k="local_y" v="-3.0688"/>
    <tag k="ele" v="0"/>
  </node>
  <node id="91" lat="" lon="">
    <tag k="local_x" v="5.3977"/>
    <tag k="local_y" v="-3.1437"/>
    <tag k="ele" v="0"/>
  </node>
  <node id="93" lat="" lon="">
    <tag k="local_x" v="5.2387"/>
    <tag k="local_y" v="-3.2747"/>
    <tag k="ele" v="0"/>
  </node>
  <node id="94" lat="" lon="">
    <tag k="local_x" v="5.1545"/>
    <tag k="local_y" v="-3.4711"/>
    <tag k="ele" v="0"/>
  </node>
  <node id="95" lat="" lon="">
    <tag k="local_x" v="5.2948"/>
    <tag k="local_y" v="-2.7226"/>
    <tag k="ele" v="0"/>
  </node>
  <node id="97" lat="" lon="">
    <tag k="local_x" v="5.0328"/>
    <tag k="local_y" v="-2.9004"/>
    <tag k="ele" v="0"/>
  </node>
  <node id="98" lat="" lon="">
    <tag k="local_x" v="4.827"/>
    <tag k="local_y" v="-3.1343"/>
    <tag k="ele" v="0"/>
  </node>
  <node id="99" lat="" lon="">
    <tag k="local_x" v="4.7615"/>
    <tag k="local_y" v="-3.4618"/>
    <tag k="ele" v="0"/>
  </node>
  <node id="101" lat="" lon="">
    <tag k="local_x" v="5.1451"/>
    <tag k="local_y" v="-5.436"/>
    <tag k="ele" v="0"/>
  </node>
  <node id="103" lat="" lon="">
    <tag k="local_x" v="4.7802"/>
    <tag k="local_y" v="-5.4828"/>
    <tag k="ele" v="0"/>
  </node>
  <node id="108" lat="" lon="">
    <tag k="local_x" v="4.931"/>
    <tag k="local_y" v="-5.8401"/>
    <tag k="ele" v="0"/>
  </node>
  <node id="109" lat="" lon="">
    <tag k="local_x" v="5.1683"/>
    <tag k="local_y" v="-6.0395"/>
    <tag k="ele" v="0"/>
  </node>
  <node id="110" lat="" lon="">
    <tag k="local_x" v="5.2578"/>
    <tag k="local_y" v="-5.6432"/>
    <tag k="ele" v="0"/>
  </node>
  <node id="113" lat="" lon="">
    <tag k="local_x" v="5.315"/>
    <tag k="local_y" v="-2.9426"/>
    <tag k="ele" v="0"/>
  </node>
  <node id="115" lat="" lon="">
    <tag k="local_x" v="5.1174"/>
    <tag k="local_y" v="-2.656"/>
    <tag k="ele" v="0"/>
  </node>
  <node id="116" lat="" lon="">
    <tag k="local_x" v="5.1068"/>
    <tag k="local_y" v="-2.3749"/>
    <tag k="ele" v="0"/>
  </node>
  <node id="117" lat="" lon="">
    <tag k="local_x" v="5.5734"/>
    <tag k="local_y" v="-2.5351"/>
    <tag k="ele" v="0"/>
  </node>
  <node id="119" lat="" lon="">
    <tag k="local_x" v="5.5018"/>
    <tag k="local_y" v="-2.3115"/>
    <tag k="ele" v="0"/>
  </node>
  <node id="121" lat="" lon="">
    <tag k="local_x" v="5.4968"/>
    <tag k="local_y" v="-0.1588"/>
    <tag k="ele" v="0"/>
  </node>
  <node id="123" lat="" lon="">
    <tag k="local_x" v="5.1412"/>
    <tag k="local_y" v="-0.1868"/>
    <tag k="ele" v="0"/>
  </node>
  <node id="126" lat="" lon="">
    <tag k="local_x" v="5.2816"/>
    <tag k="local_y" v="0.15"/>
    <tag k="ele" v="0"/>
  </node>
  <node id="128" lat="" lon="">
    <tag k="local_x" v="5.4968"/>
    <tag k="local_y" v="0.4681"/>
    <tag k="ele" v="0"/>
  </node>
  <node id="129" lat="" lon="">
    <tag k="local_x" v="5.6184"/>
    <tag k="local_y" v="0.7862"/>
    <tag k="ele" v="0"/>
  </node>
  <node id="130" lat="" lon="">
    <tag k="local_x" v="5.6746"/>
    <tag k="local_y" v="1.0201"/>
    <tag k="ele" v="0"/>
  </node>
  <node id="131" lat="" lon="">
    <tag k="local_x" v="5.712"/>
    <tag k="local_y" v="2.6167"/>
    <tag k="ele" v="0"/>
  </node>
  <node id="132" lat="" lon="">
    <tag k="local_x" v="5.7307"/>
    <tag k="local_y" v="0.2435"/>
    <tag k="ele" v="0"/>
  </node>
  <node id="134" lat="" lon="">
    <tag k="local_x" v="5.8898"/>
    <tag k="local_y" v="0.4868"/>
    <tag k="ele" v="0"/>
  </node>
  <node id="135" lat="" lon="">
    <tag k="local_x" v="6.0301"/>
    <tag k="local_y" v="0.7769"/>
    <tag k="ele" v="0"/>
  </node>
  <node id="136" lat="" lon="">
    <tag k="local_x" v="6.0862"/>
    <tag k="local_y" v="1.0482"/>
    <tag k="ele" v="0"/>
  </node>
  <node id="137" lat="" lon="">
    <tag k="local_x" v="6.0862"/>
    <tag k="local_y" v="2.6575"/>
    <tag k="ele" v="0"/>
  </node>
  <node id="145" lat="" lon="">
    <tag k="local_x" v="5.7532"/>
    <tag k="local_y" v="3.0338"/>
    <tag k="ele" v="0"/>
  </node>
  <node id="147" lat="" lon="">
    <tag k="local_x" v="5.9754"/>
    <tag k="local_y" v="3.3309"/>
    <tag k="ele" v="0"/>
  </node>
  <node id="148" lat="" lon="">
    <tag k="local_x" v="6.2755"/>
    <tag k="local_y" v="3.6063"/>
    <tag k="ele" v="0"/>
  </node>
  <node id="149" lat="" lon="">
    <tag k="local_x" v="6.6002"/>
    <tag k="local_y" v="3.7013"/>
    <tag k="ele" v="0"/>
  </node>
  <node id="150" lat="" lon="">
    <tag k="local_x" v="6.1628"/>
    <tag k="local_y" v="2.9566"/>
    <tag k="ele" v="0"/>
  </node>
  <node id="152" lat="" lon="">
    <tag k="local_x" v="6.3884"/>
    <tag k="local_y" v="3.1827"/>
    <tag k="ele" v="0"/>
  </node>
  <node id="153" lat="" lon="">
    <tag k="local_x" v="6.6955"/>
    <tag k="local_y" v="3.299"/>
    <tag k="ele" v="0"/>
  </node>
  <node id="155" lat="" lon="">
    <tag k="local_x" v="9.0496"/>
    <tag k="local_y" v="3.7106"/>
    <tag k="ele" v="0"/>
  </node>
  <node id="157" lat="" lon="">
    <tag k="local_x" v="9.0858"/>
    <tag k="local_y" v="3.3004"/>
    <tag k="ele" v="0"/>
  </node>
  <node id="160" lat="" lon="">
    <tag k="local_x" v="9.4357"/>
    <tag k="local_y" v="3.3728"/>
    <tag k="ele" v="0"/>
  </node>
  <node id="162" lat="" lon="">
    <tag k="local_x" v="9.7736"/>
    <tag k="local_y" v="3.602"/>
    <tag k="ele" v="0"/>
  </node>
  <node id="163" lat="" lon="">
    <tag k="local_x" v="10.0511"/>
    <tag k="local_y" v="3.9519"/>
    <tag k="ele" v="0"/>
  </node>
  <node id="164" lat="" lon="">
    <tag k="local_x" v="10.1959"/>
    <tag k="local_y" v="4.4707"/>
    <tag k="ele" v="0"/>
  </node>
  <node id="165" lat="" lon="">
    <tag k="local_x" v="9.4357"/>
    <tag k="local_y" v="3.783"/>
    <tag k="ele" v="0"/>
  </node>
  <node id="167" lat="" lon="">
    <tag k="local_x" v="9.7253"/>
    <tag k="local_y" v="4.1208"/>
    <tag k="ele" v="0"/>
  </node>
  <node id="168" lat="" lon="">
    <tag k="local_x" v="9.7977"/>
    <tag k="local_y" v="4.4949"/>
    <tag k="ele" v="0"/>
  </node>
  <node id="170" lat="" lon="">
    <tag k="local_x" v="10.1597"/>
    <tag k="local_y" v="5.6411"/>
    <tag k="ele" v="0"/>
  </node>
  <node id="172" lat="" lon="">
    <tag k="local_x" v="9.7857"/>
    <tag k="local_y" v="5.617"/>
    <tag k="ele" v="0"/>
  </node>
  <node id="175" lat="" lon="">
    <tag k="local_x" v="10.0511"/>
    <tag k="local_y" v="5.9911"/>
    <tag k="ele" v="0"/>
  </node>
  <node id="177" lat="" lon="">
    <tag k="local_x" v="9.8219"/>
    <tag k="local_y" v="6.3168"/>
    <tag k="ele" v="0"/>
  </node>
  <node id="178" lat="" lon="">
    <tag k="local_x" v="9.5081"/>
    <tag k="local_y" v="6.5702"/>
    <tag k="ele" v="0"/>
  </node>
  <node id="179" lat="" lon="">
    <tag k="local_x" v="9.11"/>
    <tag k="local_y" v="6.6667"/>
    <tag k="ele" v="0"/>
  </node>
  <node id="180" lat="" lon="">
    <tag k="local_x" v="9.6932"/>
    <tag k="local_y" v="5.8951"/>
    <tag k="ele" v="0"/>
  </node>
  <node id="182" lat="" lon="">
    <tag k="local_x" v="9.4673"/>
    <tag k="local_y" v="6.1406"/>
    <tag k="ele" v="0"/>
  </node>
  <node id="183" lat="" lon="">
    <tag k="local_x" v="9.073"/>
    <tag k="local_y" v="6.2973"/>
    <tag k="ele" v="0"/>
  </node>
  <node id="185" lat="" lon="">
    <tag k="local_x" v="6.3951"/>
    <tag k="local_y" v="6.6667"/>
    <tag k="ele" v="0"/>
  </node>
  <node id="187" lat="" lon="">
    <tag k="local_x" v="6.4072"/>
    <tag k="local_y" v="6.3168"/>
    <tag k="ele" v="0"/>
  </node>
  <node id="190" lat="" lon="">
    <tag k="local_x" v="6.1417"/>
    <tag k="local_y" v="6.6547"/>
    <tag k="ele" v="0"/>
  </node>
  <node id="192" lat="" lon="">
    <tag k="local_x" v="5.7719"/>
    <tag k="local_y" v="6.4374"/>
    <tag k="ele" v="0"/>
  </node>
  <node id="193" lat="" lon="">
    <tag k="local_x" v="5.4944"/>
    <tag k="local_y" v="6.0838"/>
    <tag k="ele" v="0"/>
  </node>
  <node id="194" lat="" lon="">
    <tag k="local_x" v="5.3454"/>
    <tag k="local_y" v="5.6049"/>
    <tag k="ele" v="0"/>
  </node>
  <node id="195" lat="" lon="">
    <tag k="local_x" v="6.1378"/>
    <tag k="local_y" v="6.1802"/>
    <tag k="ele" v="0"/>
  </node>
  <node id="197" lat="" lon="">
    <tag k="local_x" v="5.9005"/>
    <tag k="local_y" v="5.9511"/>
    <tag k="ele" v="0"/>
  </node>
  <node id="198" lat="" lon="">
    <tag k="local_x" v="5.7315"/>
    <tag k="local_y" v="5.6049"/>
    <tag k="ele" v="0"/>
  </node>
  <node id="200" lat="" lon="">
    <tag k="local_x" v="5.7556"/>
    <tag k="local_y" v="4.4466"/>
    <tag k="ele" v="0"/>
  </node>
  <node id="202" lat="" lon="">
    <tag k="local_x" v="5.3213"/>
    <tag k="local_y" v="4.4828"/>
    <tag k="ele" v="0"/>
  </node>
  <node id="205" lat="" lon="">
    <tag k="local_x" v="5.1282"/>
    <tag k="local_y" v="4.2174"/>
    <tag k="ele" v="0"/>
  </node>
  <node id="207" lat="" lon="">
    <tag k="local_x" v="4.8748"/>
    <tag k="local_y" v="4.0605"/>
    <tag k="ele" v="0"/>
  </node>
  <node id="208" lat="" lon="">
    <tag k="local_x" v="4.6094"/>
    <tag k="local_y" v="4.0484"/>
    <tag k="ele" v="0"/>
  </node>
  <node id="211" lat="" lon="">
    <tag k="local_x" v="5.5867"/>
    <tag k="local_y" v="4.1329"/>
    <tag k="ele" v="0"/>
  </node>
  <node id="213" lat="" lon="">
    <tag k="local_x" v="5.2971"/>
    <tag k="local_y" v="3.8795"/>
    <tag k="ele" v="0"/>
  </node>
  <node id="214" lat="" lon="">
    <tag k="local_x" v="4.9472"/>
    <tag k="local_y" v="3.6985"/>
    <tag k="ele" v="0"/>
  </node>
  <node id="215" lat="" lon="">
    <tag k="local_x" v="4.6094"/>
    <tag k="local_y" v="3.6623"/>
    <tag k="ele" v="0"/>
  </node>
  <node id="217" lat="" lon="">
    <tag k="local_x" v="3.8582"/>
    <tag k="local_y" v="4.0538"/>
    <tag k="ele" v="0"/>
  </node>
  <node id="219" lat="" lon="">
    <tag k="local_x" v="3.8293"/>
    <tag k="local_y" v="3.69"/>
    <tag k="ele" v="0"/>
  </node>
  <node id="222" lat="" lon="">
    <tag k="local_x" v="3.3436"/>
    <tag k="local_y" v="4.5119"/>
    <tag k="ele" v="0"/>
  </node>
  <node id="224" lat="" lon="">
    <tag k="local_x" v="3.3171"/>
    <tag k="local_y" v="4.0697"/>
    <tag k="ele" v="0"/>
  </node>
  <node id="227" lat="" lon="">
    <tag k="local_x" v="1.9489"/>
    <tag k="local_y" v="4.4994"/>
    <tag k="ele" v="0"/>
  </node>
  <node id="229" lat="" lon="">
    <tag k="local_x" v="1.3885"/>
    <tag k="local_y" v="4.5243"/>
    <tag k="ele" v="0"/>
  </node>
  <node id="230" lat="" lon="">
    <tag k="local_x" v="0.8281"/>
    <tag k="local_y" v="4.7983"/>
    <tag k="ele" v="0"/>
  </node>
  <node id="231" lat="" lon="">
    <tag k="local_x" v="0.2802"/>
    <tag k="local_y" v="5.0847"/>
    <tag k="ele" v="0"/>
  </node>
  <node id="232" lat="" lon="">
    <tag k="local_x" v="-0.4919"/>
    <tag k="local_y" v="5.533"/>
    <tag k="ele" v="0"/>
  </node>
  <node id="233" lat="" lon="">
    <tag k="local_x" v="-1.1021"/>
    <tag k="local_y" v="5.7572"/>
    <tag k="ele" v="0"/>
  </node>
  <node id="234" lat="" lon="">
    <tag k="local_x" v="-1.6874"/>
    <tag k="local_y" v="5.8693"/>
    <tag k="ele" v="0"/>
  </node>
  <node id="235" lat="" lon="">
    <tag k="local_x" v="-3.3561"/>
    <tag k="local_y" v="5.8817"/>
    <tag k="ele" v="0"/>
  </node>
  <node id="236" lat="" lon="">
    <tag k="local_x" v="2.3567"/>
    <tag k="local_y" v="4.0682"/>
    <tag k="ele" v="0"/>
  </node>
  <node id="238" lat="" lon="">
    <tag k="local_x" v="1.622"/>
    <tag k="local_y" v="4.0682"/>
    <tag k="ele" v="0"/>
  </node>
  <node id="239" lat="" lon="">
    <tag k="local_x" v="0.8374"/>
    <tag k="local_y" v="4.2799"/>
    <tag k="ele" v="0"/>
  </node>
  <node id="240" lat="" lon="">
    <tag k="local_x" v="0.2646"/>
    <tag k="local_y" v="4.6286"/>
    <tag k="ele" v="0"/>
  </node>
  <node id="241" lat="" lon="">
    <tag k="local_x" v="-0.4079"/>
    <tag k="local_y" v="5.0271"/>
    <tag k="ele" v="0"/>
  </node>
  <node id="242" lat="" lon="">
    <tag k="local_x" v="-1.1551"/>
    <tag k="local_y" v="5.3384"/>
    <tag k="ele" v="0"/>
  </node>
  <node id="243" lat="" lon="">
    <tag k="local_x" v="-1.9521"/>
    <tag k="local_y" v="5.4754"/>
    <tag k="ele" v="0"/>
  </node>
  <node id="244" lat="" lon="">
    <tag k="local_x" v="-3.297"/>
    <tag k="local_y" v="5.4754"/>
    <tag k="ele" v="0"/>
  </node>
  <node id="248" lat="" lon="">
    <tag k="local_x" v="2.9327"/>
    <tag k="local_y" v="3.69"/>
    <tag k="ele" v="0"/>
  </node>
  <node id="261" lat="" lon="">
    <tag k="local_x" v="1.924"/>
    <tag k="local_y" v="3.69"/>
    <tag k="ele" v="0"/>
  </node>
  <node id="263" lat="" lon="">
    <tag k="local_x" v="1.2142"/>
    <tag k="local_y" v="3.7522"/>
    <tag k="ele" v="0"/>
  </node>
  <node id="264" lat="" lon="">
    <tag k="local_x" v="0.5666"/>
    <tag k="local_y" v="4.0138"/>
    <tag k="ele" v="0"/>
  </node>
  <node id="265" lat="" lon="">
    <tag k="local_x" v="-0.1557"/>
    <tag k="local_y" v="4.4247"/>
    <tag k="ele" v="0"/>
  </node>
  <node id="266" lat="" lon="">
    <tag k="local_x" v="-0.878"/>
    <tag k="local_y" v="4.8357"/>
    <tag k="ele" v="0"/>
  </node>
  <node id="267" lat="" lon="">
    <tag k="local_x" v="-1.6874"/>
    <tag k="local_y" v="5.0723"/>
    <tag k="ele" v="0"/>
  </node>
  <node id="268" lat="" lon="">
    <tag k="local_x" v="-2.5342"/>
    <tag k="local_y" v="5.0847"/>
    <tag k="ele" v="0"/>
  </node>
  <node id="269" lat="" lon="">
    <tag k="local_x" v="-3.0946"/>
    <tag k="local_y" v="5.0972"/>
    <tag k="ele" v="0"/>
  </node>
  <node id="276" lat="" lon="">
    <tag k="local_x" v="-3.9041"/>
    <tag k="local_y" v="5.4334"/>
    <tag k="ele" v="0"/>
  </node>
  <node id="277" lat="" lon="">
    <tag k="local_x" v="-9.0721"/>
    <tag k="local_y" v="5.4334"/>
    <tag k="ele" v="0"/>
  </node>
  <node id="279" lat="" lon="">
    <tag k="local_x" v="-3.8667"/>
    <tag k="local_y" v="5.0847"/>
    <tag k="ele" v="0"/>
  </node>
  <node id="280" lat="" lon="">
    <tag k="local_x" v="-9.0597"/>
    <tag k="local_y" v="5.0598"/>
    <tag k="ele" v="0"/>
  </node>
  <node id="289" lat="" lon="">
    <tag k="local_x" v="-9.4618"/>
    <tag k="local_y" v="5.3506"/>
    <tag k="ele" v="0"/>
  </node>
  <node id="291" lat="" lon="">
    <tag k="local_x" v="-9.815"/>
    <tag k="local_y" v="5.0857"/>
    <tag k="ele" v="0"/>
  </node>
  <node id="292" lat="" lon="">
    <tag k="local_x" v="-10.0925"/>
    <tag k="local_y" v="4.682"/>
    <tag k="ele" v="0"/>
  </node>
  <node id="293" lat="" lon="">
    <tag k="local_x" v="-10.1934"/>
    <tag k="local_y" v="4.2027"/>
    <tag k="ele" v="0"/>
  </node>
  <node id="294" lat="" lon="">
    <tag k="local_x" v="-9.3861"/>
    <tag k="local_y" v="4.9469"/>
    <tag k="ele" v="0"/>
  </node>
  <node id="296" lat="" lon="">
    <tag k="local_x" v="-9.6636"/>
    <tag k="local_y" v="4.682"/>
    <tag k="ele" v="0"/>
  </node>
  <node id="297" lat="" lon="">
    <tag k="local_x" v="-9.8276"/>
    <tag k="local_y" v="4.2658"/>
    <tag k="ele" v="0"/>
  </node>
  <node id="299" lat="" lon="">
    <tag k="local_x" v="-10.1808"/>
    <tag k="local_y" v="3.6098"/>
    <tag k="ele" v="0"/>
  </node>
  <node id="301" lat="" lon="">
    <tag k="local_x" v="-9.8023"/>
    <tag k="local_y" v="3.5972"/>
    <tag k="ele" v="0"/>
  </node>
  <node id="304" lat="" lon="">
    <tag k="local_x" v="-10.1681"/>
    <tag k="local_y" v="2.1718"/>
    <tag k="ele" v="0"/>
  </node>
  <node id="306" lat="" lon="">
    <tag k="local_x" v="-9.7897"/>
    <tag k="local_y" v="2.1592"/>
    <tag k="ele" v="0"/>
  </node>
  <node id="309" lat="" lon="">
    <tag k="local_x" v="-10.1681"/>
    <tag k="local_y" v="0.4815"/>
    <tag k="ele" v="0"/>
  </node>
  <node id="311" lat="" lon="">
    <tag k="local_x" v="-9.7897"/>
    <tag k="local_y" v="0.4941"/>
    <tag k="ele" v="0"/>
  </node>
  <node id="314" lat="" lon="">
    <tag k="local_x" v="-10.0168"/>
    <tag k="local_y" v="3.2188"/>
    <tag k="ele" v="0"/>
  </node>
  <node id="316" lat="" lon="">
    <tag k="local_x" v="-9.777"/>
    <tag k="local_y" v="2.9077"/>
    <tag k="ele" v="0"/>
  </node>
  <node id="317" lat="" lon="">
    <tag k="local_x" v="-9.4364"/>
    <tag k="local_y" v="2.6638"/>
    <tag k="ele" v="0"/>
  </node>
  <node id="318" lat="" lon="">
    <tag k="local_x" v="-9.0707"/>
    <tag k="local_y" v="2.5376"/>
    <tag k="ele" v="0"/>
  </node>
  <node id="319" lat="" lon="">
    <tag k="local_x" v="-9.6131"/>
    <tag k="local_y" v="3.2314"/>
    <tag k="ele" v="0"/>
  </node>
  <node id="321" lat="" lon="">
    <tag k="local_x" v="-9.3482"/>
    <tag k="local_y" v="3.0548"/>
    <tag k="ele" v="0"/>
  </node>
  <node id="322" lat="" lon="">
    <tag k="local_x" v="-9.0707"/>
    <tag k="local_y" v="2.9287"/>
    <tag k="ele" v="0"/>
  </node>
  <node id="329" lat="" lon="">
    <tag k="local_x" v="-8.1877"/>
    <tag k="local_y" v="2.525"/>
    <tag k="ele" v="0"/>
  </node>
  <node id="331" lat="" lon="">
    <tag k="local_x" v="-8.2003"/>
    <tag k="local_y" v="2.9287"/>
    <tag k="ele" v="0"/>
  </node>
  <node id="334" lat="" lon="">
    <tag k="local_x" v="-10.1876"/>
    <tag k="local_y" v="-0.8964"/>
    <tag k="ele" v="0"/>
  </node>
  <node id="336" lat="" lon="">
    <tag k="local_x" v="-9.7832"/>
    <tag k="local_y" v="-0.8917"/>
    <tag k="ele" v="0"/>
  </node>
  <node id="339" lat="" lon="">
    <tag k="local_x" v="-10.1732"/>
    <tag k="local_y" v="-2.413"/>
    <tag k="ele" v="0"/>
  </node>
  <node id="341" lat="" lon="">
    <tag k="local_x" v="-9.7832"/>
    <tag k="local_y" v="-2.4419"/>
    <tag k="ele" v="0"/>
  </node>
  <node id="344" lat="" lon="">
    <tag k="local_x" v="-10.1876"/>
    <tag k="local_y" v="-3.8141"/>
    <tag k="ele" v="0"/>
  </node>
  <node id="346" lat="" lon="">
    <tag k="local_x" v="-9.7832"/>
    <tag k="local_y" v="-3.843"/>
    <tag k="ele" v="0"/>
  </node>
  <node id="349" lat="" lon="">
    <tag k="local_x" v="-10.1587"/>
    <tag k="local_y" v="-5.7352"/>
    <tag k="ele" v="0"/>
  </node>
  <node id="351" lat="" lon="">
    <tag k="local_x" v="-9.7832"/>
    <tag k="local_y" v="-5.7208"/>
    <tag k="ele" v="0"/>
  </node>
  <node id="354" lat="" lon="">
    <tag k="local_x" v="-10.0721"/>
    <tag k="local_y" v="-6.0674"/>
    <tag k="ele" v="0"/>
  </node>
  <node id="356" lat="" lon="">
    <tag k="local_x" v="-9.7832"/>
    <tag k="local_y" v="-6.4141"/>
    <tag k="ele" v="0"/>
  </node>
  <node id="357" lat="" lon="">
    <tag k="local_x" v="-9.4798"/>
    <tag k="local_y" v="-6.6308"/>
    <tag k="ele" v="0"/>
  </node>
  <node id="358" lat="" lon="">
    <tag k="local_x" v="-9.0754"/>
    <tag k="local_y" v="-6.7319"/>
    <tag k="ele" v="0"/>
  </node>
  <node id="359" lat="" lon="">
    <tag k="local_x" v="-9.6676"/>
    <tag k="local_y" v="-6.0097"/>
    <tag k="ele" v="0"/>
  </node>
  <node id="361" lat="" lon="">
    <tag k="local_x" v="-9.4076"/>
    <tag k="local_y" v="-6.2263"/>
    <tag k="ele" v="0"/>
  </node>
  <node id="362" lat="" lon="">
    <tag k="local_x" v="-9.1043"/>
    <tag k="local_y" v="-6.3563"/>
    <tag k="ele" v="0"/>
  </node>
  <node id="403" lat="" lon="">
    <tag k="local_x" v="-7.8874"/>
    <tag k="local_y" v="2.6955"/>
    <tag k="ele" v="0"/>
  </node>
  <node id="405" lat="" lon="">
    <tag k="local_x" v="-7.447"/>
    <tag k="local_y" v="2.7458"/>
    <tag k="ele" v="0"/>
  </node>
  <node id="406" lat="" lon="">
    <tag k="local_x" v="-7.0066"/>
    <tag k="local_y" v="2.7458"/>
    <tag k="ele" v="0"/>
  </node>
  <node id="407" lat="" lon="">
    <tag k="local_x" v="-6.5788"/>
    <tag k="local_y" v="2.5697"/>
    <tag k="ele" v="0"/>
  </node>
  <node id="408" lat="" lon="">
    <tag k="local_x" v="-6.1635"/>
    <tag k="local_y" v="2.2677"/>
    <tag k="ele" v="0"/>
  </node>
  <node id="409" lat="" lon="">
    <tag k="local_x" v="-5.9118"/>
    <tag k="local_y" v="1.9027"/>
    <tag k="ele" v="0"/>
  </node>
  <node id="410" lat="" lon="">
    <tag k="local_x" v="-5.7734"/>
    <tag k="local_y" v="1.4497"/>
    <tag k="ele" v="0"/>
  </node>
  <node id="411" lat="" lon="">
    <tag k="local_x" v="-5.7482"/>
    <tag k="local_y" v="0.9842"/>
    <tag k="ele" v="0"/>
  </node>
  <node id="412" lat="" lon="">
    <tag k="local_x" v="-7.6106"/>
    <tag k="local_y" v="3.073"/>
    <tag k="ele" v="0"/>
  </node>
  <node id="414" lat="" lon="">
    <tag k="local_x" v="-7.1576"/>
    <tag k="local_y" v="3.1233"/>
    <tag k="ele" v="0"/>
  </node>
  <node id="415" lat="" lon="">
    <tag k="local_x" v="-6.6291"/>
    <tag k="local_y" v="2.9975"/>
    <tag k="ele" v="0"/>
  </node>
  <node id="416" lat="" lon="">
    <tag k="local_x" v="-6.1761"/>
    <tag k="local_y" v="2.7458"/>
    <tag k="ele" v="0"/>
  </node>
  <node id="417" lat="" lon="">
    <tag k="local_x" v="-5.8237"/>
    <tag k="local_y" v="2.4313"/>
    <tag k="ele" v="0"/>
  </node>
  <node id="418" lat="" lon="">
    <tag k="local_x" v="-5.5721"/>
    <tag k="local_y" v="1.9782"/>
    <tag k="ele" v="0"/>
  </node>
  <node id="419" lat="" lon="">
    <tag k="local_x" v="-5.4462"/>
    <tag k="local_y" v="1.5378"/>
    <tag k="ele" v="0"/>
  </node>
  <node id="420" lat="" lon="">
    <tag k="local_x" v="-5.3707"/>
    <tag k="local_y" v="0.959"/>
    <tag k="ele" v="0"/>
  </node>
  <node id="422" lat="" lon="">
    <tag k="local_x" v="-5.7566"/>
    <tag k="local_y" v="0.4892"/>
    <tag k="ele" v="0"/>
  </node>
  <node id="424" lat="" lon="">
    <tag k="local_x" v="-5.3707"/>
    <tag k="local_y" v="0.4808"/>
    <tag k="ele" v="0"/>
  </node>
  <node id="427" lat="" lon="">
    <tag k="local_x" v="-5.9118"/>
    <tag k="local_y" v="0.2543"/>
    <tag k="ele" v="0"/>
  </node>
  <node id="429" lat="" lon="">
    <tag k="local_x" v="-6.239"/>
    <tag k="local_y" v="0.1788"/>
    <tag k="ele" v="0"/>
  </node>
  <node id="430" lat="" lon="">
    <tag k="local_x" v="-5.4337"/>
    <tag k="local_y" v="0.2291"/>
    <tag k="ele" v="0"/>
  </node>
  <node id="432" lat="" lon="">
    <tag k="local_x" v="-5.6224"/>
    <tag k="local_y" v="-0.0099"/>
    <tag k="ele" v="0"/>
  </node>
  <node id="433" lat="" lon="">
    <tag k="local_x" v="-5.8741"/>
    <tag k="local_y" v="-0.1484"/>
    <tag k="ele" v="0"/>
  </node>
  <node id="434" lat="" lon="">
    <tag k="local_x" v="-6.1509"/>
    <tag k="local_y" v="-0.2113"/>
    <tag k="ele" v="0"/>
  </node>
  <node id="436" lat="" lon="">
    <tag k="local_x" v="-7.1198"/>
    <tag k="local_y" v="0.1788"/>
    <tag k="ele" v="0"/>
  </node>
  <node id="438" lat="" lon="">
    <tag k="local_x" v="-7.1324"/>
    <tag k="local_y" v="-0.2113"/>
    <tag k="ele" v="0"/>
  </node>
  <node id="441" lat="" lon="">
    <tag k="local_x" v="-8.0132"/>
    <tag k="local_y" v="0.162"/>
    <tag k="ele" v="0"/>
  </node>
  <node id="443" lat="" lon="">
    <tag k="local_x" v="-7.9964"/>
    <tag k="local_y" v="-0.2155"/>
    <tag k="ele" v="0"/>
  </node>
  <node id="446" lat="" lon="">
    <tag k="local_x" v="-9.0451"/>
    <tag k="local_y" v="0.1662"/>
    <tag k="ele" v="0"/>
  </node>
  <node id="448" lat="" lon="">
    <tag k="local_x" v="-9.0703"/>
    <tag k="local_y" v="-0.2113"/>
    <tag k="ele" v="0"/>
  </node>
  <node id="451" lat="" lon="">
    <tag k="local_x" v="-9.259"/>
    <tag k="local_y" v="0.3047"/>
    <tag k="ele" v="0"/>
  </node>
  <node id="453" lat="" lon="">
    <tag k="local_x" v="-9.4352"/>
    <tag k="local_y" v="0.5312"/>
    <tag k="ele" v="0"/>
  </node>
  <node id="455" lat="" lon="">
    <tag k="local_x" v="-9.6582"/>
    <tag k="local_y" v="0.1906"/>
    <tag k="ele" v="0"/>
  </node>
  <node id="456" lat="" lon="">
    <tag k="local_x" v="-9.3871"/>
    <tag k="local_y" v="-0.0336"/>
    <tag k="ele" v="0"/>
  </node>
  <node id="458" lat="" lon="">
    <tag k="local_x" v="-9.41"/>
    <tag k="local_y" v="2.1922"/>
    <tag k="ele" v="0"/>
  </node>
  <node id="464" lat="" lon="">
    <tag k="local_x" v="-9.4169"/>
    <tag k="local_y" v="3.5678"/>
    <tag k="ele" v="0"/>
  </node>
  <node id="467" lat="" lon="">
    <tag k="local_x" v="-9.4319"/>
    <tag k="local_y" v="4.2252"/>
    <tag k="ele" v="0"/>
  </node>
  <node id="470" lat="" lon="">
    <tag k="local_x" v="-9.3087"/>
    <tag k="local_y" v="4.5407"/>
    <tag k="ele" v="0"/>
  </node>
  <node id="472" lat="" lon="">
    <tag k="local_x" v="-9.0375"/>
    <tag k="local_y" v="4.6957"/>
    <tag k="ele" v="0"/>
  </node>
  <node id="474" lat="" lon="">
    <tag k="local_x" v="-3.8456"/>
    <tag k="local_y" v="4.6724"/>
    <tag k="ele" v="0"/>
  </node>
  <node id="477" lat="" lon="">
    <tag k="local_x" v="-3.3218"/>
    <tag k="local_y" v="4.2301"/>
    <tag k="ele" v="0"/>
  </node>
  <node id="479" lat="" lon="">
    <tag k="local_x" v="-3.2519"/>
    <tag k="local_y" v="4.6492"/>
    <tag k="ele" v="0"/>
  </node>
  <node id="482" lat="" lon="">
    <tag k="local_x" v="-2.1693"/>
    <tag k="local_y" v="4.2534"/>
    <tag k="ele" v="0"/>
  </node>
  <node id="484" lat="" lon="">
    <tag k="local_x" v="-1.5407"/>
    <tag k="local_y" v="4.1835"/>
    <tag k="ele" v="0"/>
  </node>
  <node id="485" lat="" lon="">
    <tag k="local_x" v="-1.0169"/>
    <tag k="local_y" v="3.9973"/>
    <tag k="ele" v="0"/>
  </node>
  <node id="486" lat="" lon="">
    <tag k="local_x" v="-0.2835"/>
    <tag k="local_y" v="3.5549"/>
    <tag k="ele" v="0"/>
  </node>
  <node id="487" lat="" lon="">
    <tag k="local_x" v="0.2287"/>
    <tag k="local_y" v="3.2639"/>
    <tag k="ele" v="0"/>
  </node>
  <node id="488" lat="" lon="">
    <tag k="local_x" v="1.0319"/>
    <tag k="local_y" v="2.9612"/>
    <tag k="ele" v="0"/>
  </node>
  <node id="489" lat="" lon="">
    <tag k="local_x" v="1.7886"/>
    <tag k="local_y" v="2.8565"/>
    <tag k="ele" v="0"/>
  </node>
  <node id="490" lat="" lon="">
    <tag k="local_x" v="2.5103"/>
    <tag k="local_y" v="2.8332"/>
    <tag k="ele" v="0"/>
  </node>
  <node id="491" lat="" lon="">
    <tag k="local_x" v="3.3485"/>
    <tag k="local_y" v="2.8332"/>
    <tag k="ele" v="0"/>
  </node>
  <node id="492" lat="" lon="">
    <tag k="local_x" v="-1.9831"/>
    <tag k="local_y" v="4.6724"/>
    <tag k="ele" v="0"/>
  </node>
  <node id="494" lat="" lon="">
    <tag k="local_x" v="-1.2381"/>
    <tag k="local_y" v="4.5444"/>
    <tag k="ele" v="0"/>
  </node>
  <node id="495" lat="" lon="">
    <tag k="local_x" v="-0.5396"/>
    <tag k="local_y" v="4.1952"/>
    <tag k="ele" v="0"/>
  </node>
  <node id="496" lat="" lon="">
    <tag k="local_x" v="0.1356"/>
    <tag k="local_y" v="3.7877"/>
    <tag k="ele" v="0"/>
  </node>
  <node id="497" lat="" lon="">
    <tag k="local_x" v="0.7409"/>
    <tag k="local_y" v="3.4734"/>
    <tag k="ele" v="0"/>
  </node>
  <node id="498" lat="" lon="">
    <tag k="local_x" v="1.2298"/>
    <tag k="local_y" v="3.3454"/>
    <tag k="ele" v="0"/>
  </node>
  <node id="499" lat="" lon="">
    <tag k="local_x" v="1.9166"/>
    <tag k="local_y" v="3.2639"/>
    <tag k="ele" v="0"/>
  </node>
  <node id="500" lat="" lon="">
    <tag k="local_x" v="2.5802"/>
    <tag k="local_y" v="3.2522"/>
    <tag k="ele" v="0"/>
  </node>
  <node id="501" lat="" lon="">
    <tag k="local_x" v="3.3485"/>
    <tag k="local_y" v="3.2406"/>
    <tag k="ele" v="0"/>
  </node>
  <node id="503" lat="" lon="">
    <tag k="local_x" v="3.9421"/>
    <tag k="local_y" v="3.3104"/>
    <tag k="ele" v="0"/>
  </node>
  <node id="527" lat="" lon="">
    <tag k="local_x" v="4.6799"/>
    <tag k="local_y" v="3.3057"/>
    <tag k="ele" v="0"/>
  </node>
  <node id="531" lat="" lon="">
    <tag k="local_x" v="4.9992"/>
    <tag k="local_y" v="3.2126"/>
    <tag k="ele" v="0"/>
  </node>
  <node id="533" lat="" lon="">
    <tag k="local_x" v="5.2632"/>
    <tag k="local_y" v="2.9653"/>
    <tag k="ele" v="0"/>
  </node>
  <node id="534" lat="" lon="">
    <tag k="local_x" v="5.3529"/>
    <tag k="local_y" v="2.6309"/>
    <tag k="ele" v="0"/>
  </node>
  <node id="543" lat="" lon="">
    <tag k="local_x" v="4.9777"/>
    <tag k="local_y" v="3.5842"/>
    <tag k="ele" v="0"/>
  </node>
  <node id="544" lat="" lon="">
    <tag k="local_x" v="5.2434"/>
    <tag k="local_y" v="3.4409"/>
    <tag k="ele" v="0"/>
  </node>
  <node id="545" lat="" lon="">
    <tag k="local_x" v="5.5234"/>
    <tag k="local_y" v="3.2345"/>
    <tag k="ele" v="0"/>
  </node>
  <node id="546" lat="" lon="">
    <tag k="local_x" v="5.685"/>
    <tag k="local_y" v="3.0095"/>
    <tag k="ele" v="0"/>
  </node>
  <node id="548" lat="" lon="">
    <tag k="local_x" v="5.3292"/>
    <tag k="local_y" v="1.0187"/>
    <tag k="ele" v="0"/>
  </node>
  <node id="550" lat="" lon="">
    <tag k="local_x" v="5.1947"/>
    <tag k="local_y" v="0.7766"/>
    <tag k="ele" v="0"/>
  </node>
  <node id="552" lat="" lon="">
    <tag k="local_x" v="4.993"/>
    <tag k="local_y" v="0.4404"/>
    <tag k="ele" v="0"/>
  </node>
  <node id="553" lat="" lon="">
    <tag k="local_x" v="4.7913"/>
    <tag k="local_y" v="0.1176"/>
    <tag k="ele" v="0"/>
  </node>
  <node id="554" lat="" lon="">
    <tag k="local_x" v="4.7644"/>
    <tag k="local_y" v="-0.2455"/>
    <tag k="ele" v="0"/>
  </node>
  <node id="555" lat="" lon="">
    <tag k="local_x" v="4.7644"/>
    <tag k="local_y" v="-2.375"/>
    <tag k="ele" v="0"/>
  </node>
  <node id="559" lat="" lon="">
    <tag k="local_x" v="4.6409"/>
    <tag k="local_y" v="-2.5748"/>
    <tag k="ele" v="0"/>
  </node>
  <node id="561" lat="" lon="">
    <tag k="local_x" v="4.3937"/>
    <tag k="local_y" v="-2.7034"/>
    <tag k="ele" v="0"/>
  </node>
  <node id="562" lat="" lon="">
    <tag k="local_x" v="5.052"/>
    <tag k="local_y" v="-2.6303"/>
    <tag k="ele" v="0"/>
  </node>
  <node id="564" lat="" lon="">
    <tag k="local_x" v="4.8848"/>
    <tag k="local_y" v="-2.839"/>
    <tag k="ele" v="0"/>
  </node>
  <node id="565" lat="" lon="">
    <tag k="local_x" v="4.6724"/>
    <tag k="local_y" v="-2.9853"/>
    <tag k="ele" v="0"/>
  </node>
  <node id="566" lat="" lon="">
    <tag k="local_x" v="4.3833"/>
    <tag k="local_y" v="-3.09"/>
    <tag k="ele" v="0"/>
  </node>
  <node id="568" lat="" lon="">
    <tag k="local_x" v="-2.8454"/>
    <tag k="local_y" v="-3.0864"/>
    <tag k="ele" v="0"/>
  </node>
  <node id="570" lat="" lon="">
    <tag k="local_x" v="-2.8238"/>
    <tag k="local_y" v="-2.6966"/>
    <tag k="ele" v="0"/>
  </node>
  <node id="573" lat="" lon="">
    <tag k="local_x" v="-3.0456"/>
    <tag k="local_y" v="-2.5764"/>
    <tag k="ele" v="0"/>
  </node>
  <node id="575" lat="" lon="">
    <tag k="local_x" v="-3.159"/>
    <tag k="local_y" v="-2.3458"/>
    <tag k="ele" v="0"/>
  </node>
  <node id="576" lat="" lon="">
    <tag k="local_x" v="-3.2058"/>
    <tag k="local_y" v="-2.9553"/>
    <tag k="ele" v="0"/>
  </node>
  <node id="578" lat="" lon="">
    <tag k="local_x" v="-3.4285"/>
    <tag k="local_y" v="-2.6857"/>
    <tag k="ele" v="0"/>
  </node>
  <node id="579" lat="" lon="">
    <tag k="local_x" v="-3.5106"/>
    <tag k="local_y" v="-2.3341"/>
    <tag k="ele" v="0"/>
  </node>
  <node id="581" lat="" lon="">
    <tag k="local_x" v="-3.5356"/>
    <tag k="local_y" v="-0.6013"/>
    <tag k="ele" v="0"/>
  </node>
  <node id="583" lat="" lon="">
    <tag k="local_x" v="-3.1776"/>
    <tag k="local_y" v="-0.5913"/>
    <tag k="ele" v="0"/>
  </node>
  <node id="586" lat="" lon="">
    <tag k="local_x" v="-3.6549"/>
    <tag k="local_y" v="-0.3427"/>
    <tag k="ele" v="0"/>
  </node>
  <node id="588" lat="" lon="">
    <tag k="local_x" v="-3.9035"/>
    <tag k="local_y" v="-0.1936"/>
    <tag k="ele" v="0"/>
  </node>
  <node id="589" lat="" lon="">
    <tag k="local_x" v="-3.2273"/>
    <tag k="local_y" v="-0.293"/>
    <tag k="ele" v="0"/>
  </node>
  <node id="591" lat="" lon="">
    <tag k="local_x" v="-3.4692"/>
    <tag k="local_y" v="0.0018"/>
    <tag k="ele" v="0"/>
  </node>
  <node id="592" lat="" lon="">
    <tag k="local_x" v="-3.8339"/>
    <tag k="local_y" v="0.1843"/>
    <tag k="ele" v="0"/>
  </node>
  <node id="594" lat="" lon="">
    <tag k="local_x" v="-4.709"/>
    <tag k="local_y" v="0.1744"/>
    <tag k="ele" v="0"/>
  </node>
  <node id="596" lat="" lon="">
    <tag k="local_x" v="-4.719"/>
    <tag k="local_y" v="-0.2135"/>
    <tag k="ele" v="0"/>
  </node>
  <node id="602" lat="" lon="">
    <tag k="local_x" v="-8.3336"/>
    <tag k="local_y" v="-6.7216"/>
    <tag k="ele" v="0"/>
  </node>
  <node id="604" lat="" lon="">
    <tag k="local_x" v="-8.322"/>
    <tag k="local_y" v="-6.3598"/>
    <tag k="ele" v="0"/>
  </node>
  <node id="607" lat="" lon="">
    <tag k="local_x" v="-6.9333"/>
    <tag k="local_y" v="-6.3638"/>
    <tag k="ele" v="0"/>
  </node>
  <node id="609" lat="" lon="">
    <tag k="local_x" v="-6.9449"/>
    <tag k="local_y" v="-6.7449"/>
    <tag k="ele" v="0"/>
  </node>
  <node id="612" lat="" lon="">
    <tag k="local_x" v="-6.1086"/>
    <tag k="local_y" v="-6.356"/>
    <tag k="ele" v="0"/>
  </node>
  <node id="614" lat="" lon="">
    <tag k="local_x" v="-6.093"/>
    <tag k="local_y" v="-6.7449"/>
    <tag k="ele" v="0"/>
  </node>
  <node id="617" lat="" lon="">
    <tag k="local_x" v="-5.0311"/>
    <tag k="local_y" v="-6.3715"/>
    <tag k="ele" v="0"/>
  </node>
  <node id="619" lat="" lon="">
    <tag k="local_x" v="-5.0077"/>
    <tag k="local_y" v="-6.7566"/>
    <tag k="ele" v="0"/>
  </node>
  <node id="622" lat="" lon="">
    <tag k="local_x" v="-4.2375"/>
    <tag k="local_y" v="-6.3715"/>
    <tag k="ele" v="0"/>
  </node>
  <node id="624" lat="" lon="">
    <tag k="local_x" v="-4.2375"/>
    <tag k="local_y" v="-6.7449"/>
    <tag k="ele" v="0"/>
  </node>
  <node id="627" lat="" lon="">
    <tag k="local_x" v="-4.0391"/>
    <tag k="local_y" v="-6.2821"/>
    <tag k="ele" v="0"/>
  </node>
  <node id="629" lat="" lon="">
    <tag k="local_x" v="-3.8952"/>
    <tag k="local_y" v="-5.8343"/>
    <tag k="ele" v="0"/>
  </node>
  <node id="630" lat="" lon="">
    <tag k="local_x" v="-3.9108"/>
    <tag k="local_y" v="-6.6516"/>
    <tag k="ele" v="0"/>
  </node>
  <node id="632" lat="" lon="">
    <tag k="local_x" v="-3.6774"/>
    <tag k="local_y" v="-6.4415"/>
    <tag k="ele" v="0"/>
  </node>
  <node id="633" lat="" lon="">
    <tag k="local_x" v="-3.549"/>
    <tag k="local_y" v="-6.1264"/>
    <tag k="ele" v="0"/>
  </node>
  <node id="634" lat="" lon="">
    <tag k="local_x" v="-3.5257"/>
    <tag k="local_y" v="-5.8114"/>
    <tag k="ele" v="0"/>
  </node>
  <node id="635" lat="" lon="">
    <tag k="local_x" v="-3.9399"/>
    <tag k="local_y" v="-6.0807"/>
    <tag k="ele" v="0"/>
  </node>
  <node id="637" lat="" lon="">
    <tag k="local_x" v="-3.9224"/>
    <tag k="local_y" v="-3.419"/>
    <tag k="ele" v="0"/>
  </node>
  <node id="639" lat="" lon="">
    <tag k="local_x" v="-3.5373"/>
    <tag k="local_y" v="-3.4074"/>
    <tag k="ele" v="0"/>
  </node>
  <node id="642" lat="" lon="">
    <tag k="local_x" v="-3.9073"/>
    <tag k="local_y" v="-2.3371"/>
    <tag k="ele" v="0"/>
  </node>
  <node id="651" lat="" lon="">
    <tag k="local_x" v="-3.8802"/>
    <tag k="local_y" v="-1.6993"/>
    <tag k="ele" v="0"/>
  </node>
  <node id="652" lat="" lon="">
    <tag k="local_x" v="-3.5307"/>
    <tag k="local_y" v="-1.1622"/>
    <tag k="ele" v="0"/>
  </node>
  <node id="654" lat="" lon="">
    <tag k="local_x" v="-3.5112"/>
    <tag k="local_y" v="-1.6938"/>
    <tag k="ele" v="0"/>
  </node>
  <node id="655" lat="" lon="">
    <tag k="local_x" v="-3.1704"/>
    <tag k="local_y" v="-1.1792"/>
    <tag k="ele" v="0"/>
  </node>
  <way id="46">
    <nd ref="44"/>
    <nd ref="45"/>
    <tag k="type" v="line_thin"/>
    <tag k="subtype" v="solid"/>
  </way>
  <way id="49">
    <nd ref="47"/>
    <nd ref="48"/>
    <tag k="type" v="line_thin"/>
    <tag k="subtype" v="solid"/>
  </way>
  <way id="52">
    <nd ref="45"/>
    <nd ref="51"/>
    <tag k="type" v="line_thin"/>
    <tag k="subtype" v="solid"/>
  </way>
  <way id="54">
    <nd ref="48"/>
    <nd ref="53"/>
    <tag k="type" v="line_thin"/>
    <tag k="subtype" v="solid"/>
  </way>
  <way id="57">
    <nd ref="51"/>
    <nd ref="56"/>
    <tag k="type" v="line_thin"/>
    <tag k="subtype" v="solid"/>
  </way>
  <way id="59">
    <nd ref="53"/>
    <nd ref="58"/>
    <tag k="type" v="line_thin"/>
    <tag k="subtype" v="solid"/>
  </way>
  <way id="62">
    <nd ref="56"/>
    <nd ref="61"/>
    <nd ref="63"/>
    <nd ref="64"/>
    <tag k="type" v="line_thin"/>
    <tag k="subtype" v="solid"/>
  </way>
  <way id="66">
    <nd ref="58"/>
    <nd ref="65"/>
    <nd ref="67"/>
    <nd ref="68"/>
    <nd ref="69"/>
    <tag k="type" v="line_thin"/>
    <tag k="subtype" v="solid"/>
  </way>
  <way id="72">
    <nd ref="64"/>
    <nd ref="71"/>
    <tag k="type" v="line_thin"/>
    <tag k="subtype" v="solid"/>
  </way>
  <way id="74">
    <nd ref="69"/>
    <nd ref="73"/>
    <tag k="type" v="line_thin"/>
    <tag k="subtype" v="solid"/>
  </way>
  <way id="77">
    <nd ref="71"/>
    <nd ref="76"/>
    <nd ref="78"/>
    <nd ref="79"/>
    <tag k="type" v="line_thin"/>
    <tag k="subtype" v="solid"/>
  </way>
  <way id="81">
    <nd ref="73"/>
    <nd ref="80"/>
    <nd ref="82"/>
    <nd ref="83"/>
    <nd ref="84"/>
    <tag k="type" v="line_thin"/>
    <tag k="subtype" v="solid"/>
  </way>
  <way id="87">
    <nd ref="84"/>
    <nd ref="86"/>
    <tag k="type" v="line_thin"/>
    <tag k="subtype" v="solid"/>
  </way>
  <way id="89">
    <nd ref="79"/>
    <nd ref="88"/>
    <tag k="type" v="line_thin"/>
    <tag k="subtype" v="solid"/>
  </way>
  <way id="92">
    <nd ref="88"/>
    <nd ref="91"/>
    <nd ref="93"/>
    <nd ref="94"/>
    <tag k="type" v="line_thin"/>
    <tag k="subtype" v="solid"/>
  </way>
  <way id="96">
    <nd ref="86"/>
    <nd ref="95"/>
    <nd ref="97"/>
    <nd ref="98"/>
    <nd ref="99"/>
    <tag k="type" v="line_thin"/>
    <tag k="subtype" v="solid"/>
  </way>
  <way id="102">
    <nd ref="94"/>
    <nd ref="101"/>
    <tag k="type" v="line_thin"/>
    <tag k="subtype" v="solid"/>
  </way>
  <way id="104">
    <nd ref="99"/>
    <nd ref="103"/>
    <tag k="type" v="line_thin"/>
    <tag k="subtype" v="solid"/>
  </way>
  <way id="106">
    <nd ref="101"/>
    <nd ref="110"/>
    <nd ref="51"/>
    <tag k="type" v="line_thin"/>
    <tag k="subtype" v="solid"/>
  </way>
  <way id="107">
    <nd ref="103"/>
    <nd ref="108"/>
    <nd ref="109"/>
    <nd ref="53"/>
    <tag k="type" v="line_thin"/>
    <tag k="subtype" v="solid"/>
  </way>
  <way id="114">
    <nd ref="88"/>
    <nd ref="113"/>
    <nd ref="115"/>
    <nd ref="116"/>
    <tag k="type" v="line_thin"/>
    <tag k="subtype" v="solid"/>
  </way>
  <way id="118">
    <nd ref="86"/>
    <nd ref="117"/>
    <nd ref="119"/>
    <tag k="type" v="line_thin"/>
    <tag k="subtype" v="solid"/>
  </way>
  <way id="122">
    <nd ref="119"/>
    <nd ref="121"/>
    <tag k="type" v="line_thin"/>
    <tag k="subtype" v="solid"/>
  </way>
  <way id="124">
    <nd ref="116"/>
    <nd ref="123"/>
    <tag k="type" v="line_thin"/>
    <tag k="subtype" v="solid"/>
  </way>
  <way id="127">
    <nd ref="123"/>
    <nd ref="126"/>
    <nd ref="128"/>
    <nd ref="129"/>
    <nd ref="130"/>
    <nd ref="131"/>
    <tag k="type" v="line_thin"/>
    <tag k="subtype" v="solid"/>
  </way>
  <way id="133">
    <nd ref="121"/>
    <nd ref="132"/>
    <nd ref="134"/>
    <nd ref="135"/>
    <nd ref="136"/>
    <nd ref="137"/>
    <tag k="type" v="line_thin"/>
    <tag k="subtype" v="solid"/>
  </way>
  <way id="146">
    <nd ref="131"/>
    <nd ref="145"/>
    <nd ref="147"/>
    <nd ref="148"/>
    <nd ref="149"/>
    <tag k="type" v="line_thin"/>
    <tag k="subtype" v="solid"/>
  </way>
  <way id="151">
    <nd ref="137"/>
    <nd ref="150"/>
    <nd ref="152"/>
    <nd ref="153"/>
    <tag k="type" v="line_thin"/>
    <tag k="subtype" v="solid"/>
  </way>
  <way id="156">
    <nd ref="149"/>
    <nd ref="155"/>
    <tag k="type" v="line_thin"/>
    <tag k="subtype" v="solid"/>
  </way>
  <way id="158">
    <nd ref="153"/>
    <nd ref="157"/>
    <tag k="type" v="line_thin"/>
    <tag k="subtype" v="solid"/>
  </way>
  <way id="161">
    <nd ref="157"/>
    <nd ref="160"/>
    <nd ref="162"/>
    <nd ref="163"/>
    <nd ref="164"/>
    <tag k="type" v="line_thin"/>
    <tag k="subtype" v="solid"/>
  </way>
  <way id="166">
    <nd ref="155"/>
    <nd ref="165"/>
    <nd ref="167"/>
    <nd ref="168"/>
    <tag k="type" v="line_thin"/>
    <tag k="subtype" v="solid"/>
  </way>
  <way id="171">
    <nd ref="164"/>
    <nd ref="170"/>
    <tag k="type" v="line_thin"/>
    <tag k="subtype" v="solid"/>
  </way>
  <way id="173">
    <nd ref="168"/>
    <nd ref="172"/>
    <tag k="type" v="line_thin"/>
    <tag k="subtype" v="solid"/>
  </way>
  <way id="176">
    <nd ref="170"/>
    <nd ref="175"/>
    <nd ref="177"/>
    <nd ref="178"/>
    <nd ref="179"/>
    <tag k="type" v="line_thin"/>
    <tag k="subtype" v="solid"/>
  </way>
  <way id="181">
    <nd ref="172"/>
    <nd ref="180"/>
    <nd ref="182"/>
    <nd ref="183"/>
    <tag k="type" v="line_thin"/>
    <tag k="subtype" v="solid"/>
  </way>
  <way id="186">
    <nd ref="179"/>
    <nd ref="185"/>
    <tag k="type" v="line_thin"/>
    <tag k="subtype" v="solid"/>
  </way>
  <way id="188">
    <nd ref="183"/>
    <nd ref="187"/>
    <tag k="type" v="line_thin"/>
    <tag k="subtype" v="solid"/>
  </way>
  <way id="191">
    <nd ref="185"/>
    <nd ref="190"/>
    <nd ref="192"/>
    <nd ref="193"/>
    <nd ref="194"/>
    <tag k="type" v="line_thin"/>
    <tag k="subtype" v="solid"/>
  </way>
  <way id="196">
    <nd ref="187"/>
    <nd ref="195"/>
    <nd ref="197"/>
    <nd ref="198"/>
    <tag k="type" v="line_thin"/>
    <tag k="subtype" v="solid"/>
  </way>
  <way id="201">
    <nd ref="198"/>
    <nd ref="200"/>
    <tag k="type" v="line_thin"/>
    <tag k="subtype" v="solid"/>
  </way>
  <way id="203">
    <nd ref="194"/>
    <nd ref="202"/>
    <tag k="type" v="line_thin"/>
    <tag k="subtype" v="solid"/>
  </way>
  <way id="206">
    <nd ref="202"/>
    <nd ref="205"/>
    <nd ref="207"/>
    <nd ref="208"/>
    <tag k="type" v="line_thin"/>
    <tag k="subtype" v="solid"/>
  </way>
  <way id="212">
    <nd ref="200"/>
    <nd ref="211"/>
    <nd ref="213"/>
    <nd ref="214"/>
    <nd ref="215"/>
    <tag k="type" v="line_thin"/>
    <tag k="subtype" v="solid"/>
  </way>
  <way id="218">
    <nd ref="208"/>
    <nd ref="217"/>
    <tag k="type" v="line_thin"/>
    <tag k="subtype" v="solid"/>
  </way>
  <way id="220">
    <nd ref="215"/>
    <nd ref="219"/>
    <tag k="type" v="line_thin"/>
    <tag k="subtype" v="solid"/>
  </way>
  <way id="228">
    <nd ref="222"/>
    <nd ref="227"/>
    <nd ref="229"/>
    <nd ref="230"/>
    <nd ref="231"/>
    <nd ref="232"/>
    <nd ref="233"/>
    <nd ref="234"/>
    <nd ref="235"/>
    <tag k="type" v="line_thin"/>
    <tag k="subtype" v="solid"/>
  </way>
  <way id="237">
    <nd ref="224"/>
    <nd ref="236"/>
    <nd ref="238"/>
    <nd ref="239"/>
    <nd ref="240"/>
    <nd ref="241"/>
    <nd ref="242"/>
    <nd ref="243"/>
    <nd ref="244"/>
    <tag k="type" v="line_thin"/>
    <tag k="subtype" v="solid"/>
  </way>
  <way id="249">
    <nd ref="219"/>
    <nd ref="248"/>
    <tag k="type" v="line_thin"/>
    <tag k="subtype" v="solid"/>
  </way>
  <way id="262">
    <nd ref="248"/>
    <nd ref="261"/>
    <nd ref="263"/>
    <nd ref="264"/>
    <nd ref="265"/>
    <nd ref="266"/>
    <nd ref="267"/>
    <nd ref="268"/>
    <nd ref="269"/>
    <tag k="type" v="line_thin"/>
    <tag k="subtype" v="solid"/>
  </way>
  <way id="278">
    <nd ref="276"/>
    <nd ref="277"/>
    <tag k="type" v="line_thin"/>
    <tag k="subtype" v="solid"/>
  </way>
  <way id="281">
    <nd ref="279"/>
    <nd ref="280"/>
    <tag k="type" v="line_thin"/>
    <tag k="subtype" v="solid"/>
  </way>
  <way id="283">
    <nd ref="235"/>
    <nd ref="276"/>
    <tag k="type" v="line_thin"/>
    <tag k="subtype" v="solid"/>
  </way>
  <way id="284">
    <nd ref="244"/>
    <nd ref="279"/>
    <tag k="type" v="line_thin"/>
    <tag k="subtype" v="solid"/>
  </way>
  <way id="287">
    <nd ref="269"/>
    <nd ref="279"/>
    <tag k="type" v="line_thin"/>
    <tag k="subtype" v="solid"/>
  </way>
  <way id="290">
    <nd ref="277"/>
    <nd ref="289"/>
    <nd ref="291"/>
    <nd ref="292"/>
    <nd ref="293"/>
    <tag k="type" v="line_thin"/>
    <tag k="subtype" v="solid"/>
  </way>
  <way id="295">
    <nd ref="280"/>
    <nd ref="294"/>
    <nd ref="296"/>
    <nd ref="297"/>
    <tag k="type" v="line_thin"/>
    <tag k="subtype" v="solid"/>
  </way>
  <way id="300">
    <nd ref="293"/>
    <nd ref="299"/>
    <tag k="type" v="line_thin"/>
    <tag k="subtype" v="solid"/>
  </way>
  <way id="302">
    <nd ref="297"/>
    <nd ref="301"/>
    <tag k="type" v="line_thin"/>
    <tag k="subtype" v="solid"/>
  </way>
  <way id="305">
    <nd ref="299"/>
    <nd ref="304"/>
    <tag k="type" v="line_thin"/>
    <tag k="subtype" v="solid"/>
  </way>
  <way id="307">
    <nd ref="301"/>
    <nd ref="306"/>
    <tag k="type" v="line_thin"/>
    <tag k="subtype" v="solid"/>
  </way>
  <way id="310">
    <nd ref="304"/>
    <nd ref="309"/>
    <tag k="type" v="line_thin"/>
    <tag k="subtype" v="solid"/>
  </way>
  <way id="312">
    <nd ref="306"/>
    <nd ref="311"/>
    <tag k="type" v="line_thin"/>
    <tag k="subtype" v="solid"/>
  </way>
  <way id="315">
    <nd ref="299"/>
    <nd ref="314"/>
    <nd ref="316"/>
    <nd ref="317"/>
    <nd ref="318"/>
    <tag k="type" v="line_thin"/>
    <tag k="subtype" v="solid"/>
  </way>
  <way id="320">
    <nd ref="301"/>
    <nd ref="319"/>
    <nd ref="321"/>
    <nd ref="322"/>
    <tag k="type" v="line_thin"/>
    <tag k="subtype" v="solid"/>
  </way>
  <way id="330">
    <nd ref="318"/>
    <nd ref="329"/>
    <tag k="type" v="line_thin"/>
    <tag k="subtype" v="solid"/>
  </way>
  <way id="332">
    <nd ref="322"/>
    <nd ref="331"/>
    <tag k="type" v="line_thin"/>
    <tag k="subtype" v="solid"/>
  </way>
  <way id="335">
    <nd ref="309"/>
    <nd ref="334"/>
    <tag k="type" v="line_thin"/>
    <tag k="subtype" v="solid"/>
  </way>
  <way id="337">
    <nd ref="311"/>
    <nd ref="336"/>
    <tag k="type" v="line_thin"/>
    <tag k="subtype" v="solid"/>
  </way>
  <way id="340">
    <nd ref="334"/>
    <nd ref="339"/>
    <tag k="type" v="line_thin"/>
    <tag k="subtype" v="solid"/>
  </way>
  <way id="342">
    <nd ref="336"/>
    <nd ref="341"/>
    <tag k="type" v="line_thin"/>
    <tag k="subtype" v="solid"/>
  </way>
  <way id="345">
    <nd ref="339"/>
    <nd ref="344"/>
    <tag k="type" v="line_thin"/>
    <tag k="subtype" v="solid"/>
  </way>
  <way id="347">
    <nd ref="341"/>
    <nd ref="346"/>
    <tag k="type" v="line_thin"/>
    <tag k="subtype" v="solid"/>
  </way>
  <way id="350">
    <nd ref="344"/>
    <nd ref="349"/>
    <tag k="type" v="line_thin"/>
    <tag k="subtype" v="solid"/>
  </way>
  <way id="352">
    <nd ref="346"/>
    <nd ref="351"/>
    <tag k="type" v="line_thin"/>
    <tag k="subtype" v="solid"/>
  </way>
  <way id="355">
    <nd ref="349"/>
    <nd ref="354"/>
    <nd ref="356"/>
    <nd ref="357"/>
    <nd ref="358"/>
    <tag k="type" v="line_thin"/>
    <tag k="subtype" v="solid"/>
  </way>
  <way id="360">
    <nd ref="351"/>
    <nd ref="359"/>
    <nd ref="361"/>
    <nd ref="362"/>
    <tag k="type" v="line_thin"/>
    <tag k="subtype" v="solid"/>
  </way>
  <way id="404">
    <nd ref="329"/>
    <nd ref="403"/>
    <nd ref="405"/>
    <nd ref="406"/>
    <nd ref="407"/>
    <nd ref="408"/>
    <nd ref="409"/>
    <nd ref="410"/>
    <nd ref="411"/>
    <tag k="type" v="line_thin"/>
    <tag k="subtype" v="solid"/>
  </way>
  <way id="413">
    <nd ref="331"/>
    <nd ref="412"/>
    <nd ref="414"/>
    <nd ref="415"/>
    <nd ref="416"/>
    <nd ref="417"/>
    <nd ref="418"/>
    <nd ref="419"/>
    <nd ref="420"/>
    <tag k="type" v="line_thin"/>
    <tag k="subtype" v="solid"/>
  </way>
  <way id="423">
    <nd ref="411"/>
    <nd ref="422"/>
    <tag k="type" v="line_thin"/>
    <tag k="subtype" v="solid"/>
  </way>
  <way id="425">
    <nd ref="420"/>
    <nd ref="424"/>
    <tag k="type" v="line_thin"/>
    <tag k="subtype" v="solid"/>
  </way>
  <way id="428">
    <nd ref="422"/>
    <nd ref="427"/>
    <nd ref="429"/>
    <tag k="type" v="line_thin"/>
    <tag k="subtype" v="solid"/>
  </way>
  <way id="431">
    <nd ref="424"/>
    <nd ref="430"/>
    <nd ref="432"/>
    <nd ref="433"/>
    <nd ref="434"/>
    <tag k="type" v="line_thin"/>
    <tag k="subtype" v="solid"/>
  </way>
  <way id="437">
    <nd ref="429"/>
    <nd ref="436"/>
    <tag k="type" v="line_thin"/>
    <tag k="subtype" v="solid"/>
  </way>
  <way id="439">
    <nd ref="434"/>
    <nd ref="438"/>
    <tag k="type" v="line_thin"/>
    <tag k="subtype" v="solid"/>
  </way>
  <way id="442">
    <nd ref="436"/>
    <nd ref="441"/>
    <tag k="type" v="line_thin"/>
    <tag k="subtype" v="solid"/>
  </way>
  <way id="444">
    <nd ref="438"/>
    <nd ref="443"/>
    <tag k="type" v="line_thin"/>
    <tag k="subtype" v="solid"/>
  </way>
  <way id="447">
    <nd ref="441"/>
    <nd ref="446"/>
    <tag k="type" v="line_thin"/>
    <tag k="subtype" v="solid"/>
  </way>
  <way id="449">
    <nd ref="443"/>
    <nd ref="448"/>
    <tag k="type" v="line_thin"/>
    <tag k="subtype" v="solid"/>
  </way>
  <way id="452">
    <nd ref="446"/>
    <nd ref="451"/>
    <nd ref="453"/>
    <tag k="type" v="line_thin"/>
    <tag k="subtype" v="solid"/>
  </way>
  <way id="454">
    <nd ref="448"/>
    <nd ref="456"/>
    <nd ref="455"/>
    <nd ref="311"/>
    <tag k="type" v="line_thin"/>
    <tag k="subtype" v="solid"/>
  </way>
  <way id="459">
    <nd ref="453"/>
    <nd ref="458"/>
    <tag k="type" v="line_thin"/>
    <tag k="subtype" v="solid"/>
  </way>
  <way id="465">
    <nd ref="458"/>
    <nd ref="464"/>
    <tag k="type" v="line_thin"/>
    <tag k="subtype" v="solid"/>
  </way>
  <way id="468">
    <nd ref="464"/>
    <nd ref="467"/>
    <tag k="type" v="line_thin"/>
    <tag k="subtype" v="solid"/>
  </way>
  <way id="471">
    <nd ref="467"/>
    <nd ref="470"/>
    <nd ref="472"/>
    <tag k="type" v="line_thin"/>
    <tag k="subtype" v="solid"/>
  </way>
  <way id="475">
    <nd ref="472"/>
    <nd ref="474"/>
    <tag k="type" v="line_thin"/>
    <tag k="subtype" v="solid"/>
  </way>
  <way id="478">
    <nd ref="474"/>
    <nd ref="477"/>
    <tag k="type" v="line_thin"/>
    <tag k="subtype" v="solid"/>
  </way>
  <way id="480">
    <nd ref="279"/>
    <nd ref="479"/>
    <tag k="type" v="line_thin"/>
    <tag k="subtype" v="solid"/>
  </way>
  <way id="483">
    <nd ref="477"/>
    <nd ref="482"/>
    <nd ref="484"/>
    <nd ref="485"/>
    <nd ref="486"/>
    <nd ref="487"/>
    <nd ref="488"/>
    <nd ref="489"/>
    <nd ref="490"/>
    <nd ref="491"/>
    <tag k="type" v="line_thin"/>
    <tag k="subtype" v="solid"/>
  </way>
  <way id="493">
    <nd ref="479"/>
    <nd ref="492"/>
    <nd ref="494"/>
    <nd ref="495"/>
    <nd ref="496"/>
    <nd ref="497"/>
    <nd ref="498"/>
    <nd ref="499"/>
    <nd ref="500"/>
    <nd ref="501"/>
    <tag k="type" v="line_thin"/>
    <tag k="subtype" v="solid"/>
  </way>
  <way id="504">
    <nd ref="491"/>
    <nd ref="503"/>
    <tag k="type" v="line_thin"/>
    <tag k="subtype" v="solid"/>
  </way>
  <way id="505">
    <nd ref="501"/>
    <nd ref="219"/>
    <tag k="type" v="line_thin"/>
    <tag k="subtype" v="solid"/>
  </way>
  <way id="507">
    <nd ref="474"/>
    <nd ref="479"/>
    <tag k="type" v="line_thin"/>
    <tag k="subtype" v="solid"/>
  </way>
  <way id="510">
    <nd ref="501"/>
    <nd ref="503"/>
    <tag k="type" v="line_thin"/>
    <tag k="subtype" v="solid"/>
  </way>
  <way id="519">
    <nd ref="217"/>
    <nd ref="222"/>
    <tag k="type" v="line_thin"/>
    <tag k="subtype" v="solid"/>
  </way>
  <way id="520">
    <nd ref="219"/>
    <nd ref="224"/>
    <tag k="type" v="line_thin"/>
    <tag k="subtype" v="solid"/>
  </way>
  <way id="522">
    <nd ref="217"/>
    <nd ref="224"/>
    <tag k="type" v="line_thin"/>
    <tag k="subtype" v="solid"/>
  </way>
  <way id="525">
    <nd ref="244"/>
    <nd ref="276"/>
    <tag k="type" v="line_thin"/>
    <tag k="subtype" v="solid"/>
  </way>
  <way id="528">
    <nd ref="503"/>
    <nd ref="527"/>
    <tag k="type" v="line_thin"/>
    <tag k="subtype" v="solid"/>
  </way>
  <way id="532">
    <nd ref="527"/>
    <nd ref="531"/>
    <nd ref="533"/>
    <nd ref="534"/>
    <tag k="type" v="line_thin"/>
    <tag k="subtype" v="solid"/>
  </way>
  <way id="542">
    <nd ref="215"/>
    <nd ref="543"/>
    <nd ref="544"/>
    <nd ref="545"/>
    <nd ref="546"/>
    <nd ref="131"/>
    <tag k="type" v="line_thin"/>
    <tag k="subtype" v="solid"/>
  </way>
  <way id="549">
    <nd ref="534"/>
    <nd ref="548"/>
    <nd ref="550"/>
    <nd ref="552"/>
    <nd ref="553"/>
    <nd ref="554"/>
    <tag k="type" v="line_thin"/>
    <tag k="subtype" v="solid"/>
  </way>
  <way id="556">
    <nd ref="554"/>
    <nd ref="555"/>
    <tag k="type" v="line_thin"/>
    <tag k="subtype" v="solid"/>
  </way>
  <way id="560">
    <nd ref="555"/>
    <nd ref="559"/>
    <nd ref="561"/>
    <tag k="type" v="line_thin"/>
    <tag k="subtype" v="solid"/>
  </way>
  <way id="563">
    <nd ref="116"/>
    <nd ref="562"/>
    <nd ref="564"/>
    <nd ref="565"/>
    <nd ref="566"/>
    <tag k="type" v="line_thin"/>
    <tag k="subtype" v="solid"/>
  </way>
  <way id="569">
    <nd ref="566"/>
    <nd ref="568"/>
    <tag k="type" v="line_thin"/>
    <tag k="subtype" v="solid"/>
  </way>
  <way id="571">
    <nd ref="561"/>
    <nd ref="570"/>
    <tag k="type" v="line_thin"/>
    <tag k="subtype" v="solid"/>
  </way>
  <way id="574">
    <nd ref="570"/>
    <nd ref="573"/>
    <nd ref="575"/>
    <tag k="type" v="line_thin"/>
    <tag k="subtype" v="solid"/>
  </way>
  <way id="577">
    <nd ref="568"/>
    <nd ref="576"/>
    <nd ref="578"/>
    <nd ref="579"/>
    <tag k="type" v="line_thin"/>
    <tag k="subtype" v="solid"/>
  </way>
  <way id="582">
    <nd ref="579"/>
    <nd ref="581"/>
    <tag k="type" v="line_thin"/>
    <tag k="subtype" v="solid"/>
  </way>
  <way id="584">
    <nd ref="575"/>
    <nd ref="583"/>
    <tag k="type" v="line_thin"/>
    <tag k="subtype" v="solid"/>
  </way>
  <way id="587">
    <nd ref="581"/>
    <nd ref="586"/>
    <nd ref="588"/>
    <tag k="type" v="line_thin"/>
    <tag k="subtype" v="solid"/>
  </way>
  <way id="590">
    <nd ref="583"/>
    <nd ref="589"/>
    <nd ref="591"/>
    <nd ref="592"/>
    <tag k="type" v="line_thin"/>
    <tag k="subtype" v="solid"/>
  </way>
  <way id="595">
    <nd ref="592"/>
    <nd ref="594"/>
    <tag k="type" v="line_thin"/>
    <tag k="subtype" v="solid"/>
  </way>
  <way id="597">
    <nd ref="588"/>
    <nd ref="596"/>
    <tag k="type" v="line_thin"/>
    <tag k="subtype" v="solid"/>
  </way>
  <way id="599">
    <nd ref="594"/>
    <nd ref="429"/>
    <tag k="type" v="line_thin"/>
    <tag k="subtype" v="solid"/>
  </way>
  <way id="600">
    <nd ref="596"/>
    <nd ref="434"/>
    <tag k="type" v="line_thin"/>
    <tag k="subtype" v="solid"/>
  </way>
  <way id="603">
    <nd ref="358"/>
    <nd ref="602"/>
    <tag k="type" v="line_thin"/>
    <tag k="subtype" v="solid"/>
  </way>
  <way id="605">
    <nd ref="362"/>
    <nd ref="604"/>
    <tag k="type" v="line_thin"/>
    <tag k="subtype" v="solid"/>
  </way>
  <way id="608">
    <nd ref="604"/>
    <nd ref="607"/>
    <tag k="type" v="line_thin"/>
    <tag k="subtype" v="solid"/>
  </way>
  <way id="610">
    <nd ref="602"/>
    <nd ref="609"/>
    <tag k="type" v="line_thin"/>
    <tag k="subtype" v="solid"/>
  </way>
  <way id="613">
    <nd ref="607"/>
    <nd ref="612"/>
    <tag k="type" v="line_thin"/>
    <tag k="subtype" v="solid"/>
  </way>
  <way id="615">
    <nd ref="609"/>
    <nd ref="614"/>
    <tag k="type" v="line_thin"/>
    <tag k="subtype" v="solid"/>
  </way>
  <way id="618">
    <nd ref="612"/>
    <nd ref="617"/>
    <tag k="type" v="line_thin"/>
    <tag k="subtype" v="solid"/>
  </way>
  <way id="620">
    <nd ref="614"/>
    <nd ref="619"/>
    <tag k="type" v="line_thin"/>
    <tag k="subtype" v="solid"/>
  </way>
  <way id="623">
    <nd ref="617"/>
    <nd ref="622"/>
    <tag k="type" v="line_thin"/>
    <tag k="subtype" v="solid"/>
  </way>
  <way id="625">
    <nd ref="619"/>
    <nd ref="624"/>
    <tag k="type" v="line_thin"/>
    <tag k="subtype" v="solid"/>
  </way>
  <way id="628">
    <nd ref="622"/>
    <nd ref="627"/>
    <nd ref="635"/>
    <nd ref="629"/>
    <tag k="type" v="line_thin"/>
    <tag k="subtype" v="solid"/>
  </way>
  <way id="631">
    <nd ref="624"/>
    <nd ref="630"/>
    <nd ref="632"/>
    <nd ref="633"/>
    <nd ref="634"/>
    <tag k="type" v="line_thin"/>
    <tag k="subtype" v="solid"/>
  </way>
  <way id="638">
    <nd ref="629"/>
    <nd ref="637"/>
    <tag k="type" v="line_thin"/>
    <tag k="subtype" v="solid"/>
  </way>
  <way id="640">
    <nd ref="634"/>
    <nd ref="639"/>
    <tag k="type" v="line_thin"/>
    <tag k="subtype" v="solid"/>
  </way>
  <way id="643">
    <nd ref="637"/>
    <nd ref="642"/>
    <tag k="type" v="line_thin"/>
    <tag k="subtype" v="solid"/>
  </way>
  <way id="644">
    <nd ref="639"/>
    <nd ref="579"/>
    <tag k="type" v="line_thin"/>
    <tag k="subtype" v="solid"/>
  </way>
  <way id="648">
    <nd ref="642"/>
    <nd ref="651"/>
    <nd ref="652"/>
    <nd ref="581"/>
    <tag k="type" v="line_thin"/>
    <tag k="subtype" v="solid"/>
  </way>
  <way id="649">
    <nd ref="579"/>
    <nd ref="654"/>
    <nd ref="655"/>
    <nd ref="583"/>
    <tag k="type" v="line_thin"/>
    <tag k="subtype" v="solid"/>
  </way>
  <relation id="50">
    <member type="way" role="left" ref="46"/>
    <member type="way" role="right" ref="49"/>
    <tag k="type" v="lanelet"/>
    <tag k="subtype" v="road"/>
    <tag k="speed_limit" v="0.2"/>
    <tag k="location" v="urban"/>
    <tag k="one_way" v="yes"/>
  </relation>
  <relation id="55">
    <member type="way" role="left" ref="52"/>
    <member type="way" role="right" ref="54"/>
    <tag k="type" v="lanelet"/>
    <tag k="subtype" v="road"/>
    <tag k="speed_limit" v="0.2"/>
    <tag k="location" v="urban"/>
    <tag k="one_way" v="yes"/>
    <tag k="turn_direction" v="straight"/>
  </relation>
  <relation id="60">
    <member type="way" role="left" ref="57"/>
    <member type="way" role="right" ref="59"/>
    <tag k="type" v="lanelet"/>
    <tag k="subtype" v="road"/>
    <tag k="speed_limit" v="0.2"/>
    <tag k="location" v="urban"/>
    <tag k="one_way" v="yes"/>
  </relation>
  <relation id="70">
    <member type="way" role="left" ref="62"/>
    <member type="way" role="right" ref="66"/>
    <tag k="type" v="lanelet"/>
    <tag k="subtype" v="road"/>
    <tag k="speed_limit" v="0.2"/>
    <tag k="location" v="urban"/>
    <tag k="one_way" v="yes"/>
    <tag k="turn_direction" v="left"/>
  </relation>
  <relation id="75">
    <member type="way" role="left" ref="72"/>
    <member type="way" role="right" ref="74"/>
    <tag k="type" v="lanelet"/>
    <tag k="subtype" v="road"/>
    <tag k="speed_limit" v="10"/>
    <tag k="location" v="urban"/>
    <tag k="one_way" v="yes"/>
  </relation>
  <relation id="85">
    <member type="way" role="left" ref="77"/>
    <member type="way" role="right" ref="81"/>
    <tag k="type" v="lanelet"/>
    <tag k="subtype" v="road"/>
    <tag k="speed_limit" v="0.2"/>
    <tag k="location" v="urban"/>
    <tag k="one_way" v="yes"/>
    <tag k="turn_direction" v="left"/>
  </relation>
  <relation id="90">
    <member type="way" role="left" ref="89"/>
    <member type="way" role="right" ref="87"/>
    <tag k="type" v="lanelet"/>
    <tag k="subtype" v="road"/>
    <tag k="speed_limit" v="0.2"/>
    <tag k="location" v="urban"/>
    <tag k="one_way" v="yes"/>
    <tag k="turn_direction" v="straight"/>
  </relation>
  <relation id="100">
    <member type="way" role="left" ref="92"/>
    <member type="way" role="right" ref="96"/>
    <tag k="type" v="lanelet"/>
    <tag k="subtype" v="road"/>
    <tag k="speed_limit" v="0.2"/>
    <tag k="location" v="urban"/>
    <tag k="one_way" v="yes"/>
    <tag k="turn_direction" v="left"/>
  </relation>
  <relation id="105">
    <member type="way" role="left" ref="102"/>
    <member type="way" role="right" ref="104"/>
    <tag k="type" v="lanelet"/>
    <tag k="subtype" v="road"/>
    <tag k="speed_limit" v="0.2"/>
    <tag k="location" v="urban"/>
    <tag k="one_way" v="yes"/>
  </relation>
  <relation id="112">
    <member type="way" role="left" ref="106"/>
    <member type="way" role="right" ref="107"/>
    <tag k="type" v="lanelet"/>
    <tag k="subtype" v="road"/>
    <tag k="speed_limit" v="10"/>
    <tag k="location" v="urban"/>
    <tag k="one_way" v="yes"/>
  </relation>
  <relation id="120">
    <member type="way" role="left" ref="114"/>
    <member type="way" role="right" ref="118"/>
    <tag k="type" v="lanelet"/>
    <tag k="subtype" v="road"/>
    <tag k="speed_limit" v="0.2"/>
    <tag k="location" v="urban"/>
    <tag k="one_way" v="yes"/>
    <tag k="turn_direction" v="right"/>
  </relation>
  <relation id="125">
    <member type="way" role="left" ref="124"/>
    <member type="way" role="right" ref="122"/>
    <tag k="type" v="lanelet"/>
    <tag k="subtype" v="road"/>
    <tag k="speed_limit" v="0.2"/>
    <tag k="location" v="urban"/>
    <tag k="one_way" v="yes"/>
  </relation>
  <relation id="138">
    <member type="way" role="left" ref="127"/>
    <member type="way" role="right" ref="133"/>
    <tag k="type" v="lanelet"/>
    <tag k="subtype" v="road"/>
    <tag k="speed_limit" v="0.2"/>
    <tag k="location" v="urban"/>
    <tag k="one_way" v="yes"/>
  </relation>
  <relation id="154">
    <member type="way" role="left" ref="146"/>
    <member type="way" role="right" ref="151"/>
    <tag k="type" v="lanelet"/>
    <tag k="subtype" v="road"/>
    <tag k="speed_limit" v="0.2"/>
    <tag k="location" v="urban"/>
    <tag k="one_way" v="yes"/>
    <tag k="turn_direction" v="right"/>
  </relation>
  <relation id="159">
    <member type="way" role="left" ref="156"/>
    <member type="way" role="right" ref="158"/>
    <tag k="type" v="lanelet"/>
    <tag k="subtype" v="road"/>
    <tag k="speed_limit" v="0.2"/>
    <tag k="location" v="urban"/>
    <tag k="one_way" v="yes"/>
  </relation>
  <relation id="169">
    <member type="way" role="left" ref="166"/>
    <member type="way" role="right" ref="161"/>
    <tag k="type" v="lanelet"/>
    <tag k="subtype" v="road"/>
    <tag k="speed_limit" v="0.2"/>
    <tag k="location" v="urban"/>
    <tag k="one_way" v="yes"/>
    <tag k="turn_direction" v="left"/>
  </relation>
  <relation id="174">
    <member type="way" role="left" ref="173"/>
    <member type="way" role="right" ref="171"/>
    <tag k="type" v="lanelet"/>
    <tag k="subtype" v="road"/>
    <tag k="speed_limit" v="0.2"/>
    <tag k="location" v="urban"/>
    <tag k="one_way" v="yes"/>
  </relation>
  <relation id="184">
    <member type="way" role="left" ref="181"/>
    <member type="way" role="right" ref="176"/>
    <tag k="type" v="lanelet"/>
    <tag k="subtype" v="road"/>
    <tag k="speed_limit" v="0.2"/>
    <tag k="location" v="urban"/>
    <tag k="one_way" v="yes"/>
    <tag k="turn_direction" v="left"/>
  </relation>
  <relation id="189">
    <member type="way" role="left" ref="188"/>
    <member type="way" role="right" ref="186"/>
    <tag k="type" v="lanelet"/>
    <tag k="subtype" v="road"/>
    <tag k="speed_limit" v="0.2"/>
    <tag k="location" v="urban"/>
    <tag k="one_way" v="yes"/>
  </relation>
  <relation id="199">
    <member type="way" role="left" ref="196"/>
    <member type="way" role="right" ref="191"/>
    <tag k="type" v="lanelet"/>
    <tag k="subtype" v="road"/>
    <tag k="speed_limit" v="0.2"/>
    <tag k="location" v="urban"/>
    <tag k="one_way" v="yes"/>
    <tag k="turn_direction" v="left"/>
  </relation>
  <relation id="204">
    <member type="way" role="left" ref="201"/>
    <member type="way" role="right" ref="203"/>
    <tag k="type" v="lanelet"/>
    <tag k="subtype" v="road"/>
    <tag k="speed_limit" v="0.2"/>
    <tag k="location" v="urban"/>
    <tag k="one_way" v="yes"/>
  </relation>
  <relation id="216">
    <member type="way" role="left" ref="212"/>
    <member type="way" role="right" ref="206"/>
    <tag k="type" v="lanelet"/>
    <tag k="subtype" v="road"/>
    <tag k="speed_limit" v="0.2"/>
    <tag k="location" v="urban"/>
    <tag k="one_way" v="yes"/>
    <tag k="turn_direction" v="right"/>
  </relation>
  <relation id="221">
    <member type="way" role="left" ref="220"/>
    <member type="way" role="right" ref="218"/>
    <tag k="type" v="lanelet"/>
    <tag k="subtype" v="road"/>
    <tag k="speed_limit" v="0.2"/>
    <tag k="location" v="urban"/>
    <tag k="one_way" v="yes"/>
  </relation>
  <relation id="245">
    <member type="way" role="left" ref="237"/>
    <member type="way" role="right" ref="228"/>
    <tag k="type" v="lanelet"/>
    <tag k="subtype" v="road"/>
    <tag k="speed_limit" v="0.2"/>
    <tag k="location" v="urban"/>
    <tag k="one_way" v="yes"/>
  </relation>
  <relation id="282">
    <member type="way" role="left" ref="281"/>
    <member type="way" role="right" ref="278"/>
    <tag k="type" v="lanelet"/>
    <tag k="subtype" v="road"/>
    <tag k="speed_limit" v="0.2"/>
    <tag k="location" v="urban"/>
    <tag k="one_way" v="yes"/>
  </relation>
  <relation id="285">
    <member type="way" role="left" ref="284"/>
    <member type="way" role="right" ref="283"/>
    <tag k="type" v="lanelet"/>
    <tag k="subtype" v="road"/>
    <tag k="speed_limit" v="0.2"/>
    <tag k="location" v="urban"/>
    <tag k="one_way" v="yes"/>
    <tag k="turn_direction" v="left"/>
  </relation>
  <relation id="298">
    <member type="way" role="left" ref="295"/>
    <member type="way" role="right" ref="290"/>
    <tag k="type" v="lanelet"/>
    <tag k="subtype" v="road"/>
    <tag k="speed_limit" v="0.2"/>
    <tag k="location" v="urban"/>
    <tag k="one_way" v="yes"/>
    <tag k="turn_direction" v="left"/>
  </relation>
  <relation id="303">
    <member type="way" role="left" ref="302"/>
    <member type="way" role="right" ref="300"/>
    <tag k="type" v="lanelet"/>
    <tag k="subtype" v="road"/>
    <tag k="speed_limit" v="0.2"/>
    <tag k="location" v="urban"/>
    <tag k="one_way" v="yes"/>
  </relation>
  <relation id="308">
    <member type="way" role="left" ref="307"/>
    <member type="way" role="right" ref="305"/>
    <tag k="type" v="lanelet"/>
    <tag k="subtype" v="road"/>
    <tag k="speed_limit" v="0.2"/>
    <tag k="location" v="urban"/>
    <tag k="one_way" v="yes"/>
    <tag k="turn_direction" v="straight"/>
  </relation>
  <relation id="313">
    <member type="way" role="left" ref="312"/>
    <member type="way" role="right" ref="310"/>
    <tag k="type" v="lanelet"/>
    <tag k="subtype" v="road"/>
    <tag k="speed_limit" v="0.2"/>
    <tag k="location" v="urban"/>
    <tag k="one_way" v="yes"/>
  </relation>
  <relation id="323">
    <member type="way" role="left" ref="320"/>
    <member type="way" role="right" ref="315"/>
    <tag k="type" v="lanelet"/>
    <tag k="subtype" v="road"/>
    <tag k="speed_limit" v="0.2"/>
    <tag k="location" v="urban"/>
    <tag k="one_way" v="yes"/>
    <tag k="turn_direction" v="left"/>
  </relation>
  <relation id="333">
    <member type="way" role="left" ref="332"/>
    <member type="way" role="right" ref="330"/>
    <tag k="type" v="lanelet"/>
    <tag k="subtype" v="road"/>
    <tag k="speed_limit" v="0.2"/>
    <tag k="location" v="urban"/>
    <tag k="one_way" v="yes"/>
  </relation>
  <relation id="338">
    <member type="way" role="left" ref="337"/>
    <member type="way" role="right" ref="335"/>
    <tag k="type" v="lanelet"/>
    <tag k="subtype" v="road"/>
    <tag k="speed_limit" v="0.2"/>
    <tag k="location" v="urban"/>
    <tag k="one_way" v="yes"/>
    <tag k="turn_direction" v="straight"/>
  </relation>
  <relation id="343">
    <member type="way" role="left" ref="342"/>
    <member type="way" role="right" ref="340"/>
    <tag k="type" v="lanelet"/>
    <tag k="subtype" v="road"/>
    <tag k="speed_limit" v="0.2"/>
    <tag k="location" v="urban"/>
    <tag k="one_way" v="yes"/>
  </relation>
  <relation id="348">
    <member type="way" role="left" ref="347"/>
    <member type="way" role="right" ref="345"/>
    <tag k="type" v="lanelet"/>
    <tag k="subtype" v="road"/>
    <tag k="speed_limit" v="0.2"/>
    <tag k="location" v="urban"/>
    <tag k="one_way" v="yes"/>
    <tag k="turn_direction" v="straight"/>
  </relation>
  <relation id="353">
    <member type="way" role="left" ref="352"/>
    <member type="way" role="right" ref="350"/>
    <tag k="type" v="lanelet"/>
    <tag k="subtype" v="road"/>
    <tag k="speed_limit" v="0.2"/>
    <tag k="location" v="urban"/>
    <tag k="one_way" v="yes"/>
  </relation>
  <relation id="363">
    <member type="way" role="left" ref="360"/>
    <member type="way" role="right" ref="355"/>
    <tag k="type" v="lanelet"/>
    <tag k="subtype" v="road"/>
    <tag k="speed_limit" v="0.2"/>
    <tag k="location" v="urban"/>
    <tag k="one_way" v="yes"/>
    <tag k="turn_direction" v="left"/>
  </relation>
  <relation id="421">
    <member type="way" role="left" ref="413"/>
    <member type="way" role="right" ref="404"/>
    <tag k="type" v="lanelet"/>
    <tag k="subtype" v="road"/>
    <tag k="speed_limit" v="0.2"/>
    <tag k="location" v="urban"/>
    <tag k="one_way" v="yes"/>
    <tag k="turn_direction" v="right"/>
  </relation>
  <relation id="426">
    <member type="way" role="left" ref="425"/>
    <member type="way" role="right" ref="423"/>
    <tag k="type" v="lanelet"/>
    <tag k="subtype" v="road"/>
    <tag k="speed_limit" v="0.2"/>
    <tag k="location" v="urban"/>
    <tag k="one_way" v="yes"/>
  </relation>
  <relation id="435">
    <member type="way" role="left" ref="431"/>
    <member type="way" role="right" ref="428"/>
    <tag k="type" v="lanelet"/>
    <tag k="subtype" v="road"/>
    <tag k="speed_limit" v="0.2"/>
    <tag k="location" v="urban"/>
    <tag k="one_way" v="yes"/>
    <tag k="turn_direction" v="right"/>
  </relation>
  <relation id="440">
    <member type="way" role="left" ref="439"/>
    <member type="way" role="right" ref="437"/>
    <tag k="type" v="lanelet"/>
    <tag k="subtype" v="road"/>
    <tag k="speed_limit" v="0.2"/>
    <tag k="location" v="urban"/>
    <tag k="one_way" v="yes"/>
  </relation>
  <relation id="445">
    <member type="way" role="left" ref="444"/>
    <member type="way" role="right" ref="442"/>
    <tag k="type" v="lanelet"/>
    <tag k="subtype" v="road"/>
    <tag k="speed_limit" v="0.2"/>
    <tag k="location" v="urban"/>
    <tag k="one_way" v="yes"/>
    <tag k="turn_direction" v="straight"/>
  </relation>
  <relation id="450">
    <member type="way" role="left" ref="449"/>
    <member type="way" role="right" ref="447"/>
    <tag k="type" v="lanelet"/>
    <tag k="subtype" v="road"/>
    <tag k="speed_limit" v="0.2"/>
    <tag k="location" v="urban"/>
    <tag k="one_way" v="yes"/>
  </relation>
  <relation id="457">
    <member type="way" role="left" ref="454"/>
    <member type="way" role="right" ref="452"/>
    <tag k="type" v="lanelet"/>
    <tag k="subtype" v="road"/>
    <tag k="speed_limit" v="0.2"/>
    <tag k="location" v="urban"/>
    <tag k="one_way" v="yes"/>
    <tag k="turn_direction" v="right"/>
  </relation>
  <relation id="460">
    <member type="way" role="left" ref="312"/>
    <member type="way" role="right" ref="459"/>
    <tag k="type" v="lanelet"/>
    <tag k="subtype" v="road"/>
    <tag k="speed_limit" v="0.2"/>
    <tag k="location" v="urban"/>
    <tag k="one_way" v="yes"/>
  </relation>
  <relation id="466">
    <member type="way" role="left" ref="307"/>
    <member type="way" role="right" ref="465"/>
    <tag k="type" v="lanelet"/>
    <tag k="subtype" v="road"/>
    <tag k="speed_limit" v="0.2"/>
    <tag k="location" v="urban"/>
    <tag k="one_way" v="yes"/>
    <tag k="turn_direction" v="straight"/>
  </relation>
  <relation id="469">
    <member type="way" role="left" ref="302"/>
    <member type="way" role="right" ref="468"/>
    <tag k="type" v="lanelet"/>
    <tag k="subtype" v="road"/>
    <tag k="speed_limit" v="0.2"/>
    <tag k="location" v="urban"/>
    <tag k="one_way" v="yes"/>
  </relation>
  <relation id="473">
    <member type="way" role="left" ref="295"/>
    <member type="way" role="right" ref="471"/>
    <tag k="type" v="lanelet"/>
    <tag k="subtype" v="road"/>
    <tag k="speed_limit" v="0.2"/>
    <tag k="location" v="urban"/>
    <tag k="one_way" v="yes"/>
    <tag k="turn_direction" v="right"/>
  </relation>
  <relation id="476">
    <member type="way" role="left" ref="281"/>
    <member type="way" role="right" ref="475"/>
    <tag k="type" v="lanelet"/>
    <tag k="subtype" v="road"/>
    <tag k="speed_limit" v="0.2"/>
    <tag k="location" v="urban"/>
    <tag k="one_way" v="yes"/>
  </relation>
  <relation id="481">
    <member type="way" role="left" ref="480"/>
    <member type="way" role="right" ref="478"/>
    <tag k="type" v="lanelet"/>
    <tag k="subtype" v="road"/>
    <tag k="speed_limit" v="0.2"/>
    <tag k="location" v="urban"/>
    <tag k="one_way" v="yes"/>
    <tag k="turn_direction" v="right"/>
  </relation>
  <relation id="502">
    <member type="way" role="left" ref="493"/>
    <member type="way" role="right" ref="483"/>
    <tag k="type" v="lanelet"/>
    <tag k="subtype" v="road"/>
    <tag k="speed_limit" v="0.2"/>
    <tag k="location" v="urban"/>
    <tag k="one_way" v="yes"/>
  </relation>
  <relation id="506">
    <member type="way" role="left" ref="505"/>
    <member type="way" role="right" ref="504"/>
    <tag k="type" v="lanelet"/>
    <tag k="subtype" v="road"/>
    <tag k="speed_limit" v="0.2"/>
    <tag k="location" v="urban"/>
    <tag k="one_way" v="yes"/>
    <tag k="turn_direction" v="left"/>
  </relation>
  <relation id="508">
    <member type="way" role="left" ref="287"/>
    <member type="way" role="right" ref="507"/>
    <tag k="type" v="lanelet"/>
    <tag k="subtype" v="road"/>
    <tag k="speed_limit" v="0.2"/>
    <tag k="location" v="urban"/>
    <tag k="one_way" v="yes"/>
    <tag k="turn_direction" v="straight"/>
  </relation>
  <relation id="509">
    <member type="way" role="left" ref="262"/>
    <member type="way" role="right" ref="493"/>
    <tag k="type" v="lanelet"/>
    <tag k="subtype" v="road"/>
    <tag k="speed_limit" v="0.2"/>
    <tag k="location" v="urban"/>
    <tag k="one_way" v="yes"/>
  </relation>
  <relation id="511">
    <member type="way" role="left" ref="249"/>
    <member type="way" role="right" ref="510"/>
    <tag k="type" v="lanelet"/>
    <tag k="subtype" v="road"/>
    <tag k="speed_limit" v="0.2"/>
    <tag k="location" v="urban"/>
    <tag k="one_way" v="yes"/>
    <tag k="turn_direction" v="straight"/>
  </relation>
  <relation id="521">
    <member type="way" role="left" ref="520"/>
    <member type="way" role="right" ref="519"/>
    <tag k="type" v="lanelet"/>
    <tag k="subtype" v="road"/>
    <tag k="speed_limit" v="0.2"/>
    <tag k="location" v="urban"/>
    <tag k="one_way" v="yes"/>
    <tag k="turn_direction" v="right"/>
  </relation>
  <relation id="523">
    <member type="way" role="left" ref="249"/>
    <member type="way" role="right" ref="522"/>
    <tag k="type" v="lanelet"/>
    <tag k="subtype" v="road"/>
    <tag k="speed_limit" v="0.2"/>
    <tag k="location" v="urban"/>
    <tag k="one_way" v="yes"/>
    <tag k="turn_direction" v="straight"/>
  </relation>
  <relation id="524">
    <member type="way" role="left" ref="262"/>
    <member type="way" role="right" ref="237"/>
    <tag k="type" v="lanelet"/>
    <tag k="subtype" v="road"/>
    <tag k="speed_limit" v="0.2"/>
    <tag k="location" v="urban"/>
    <tag k="one_way" v="yes"/>
  </relation>
  <relation id="526">
    <member type="way" role="left" ref="287"/>
    <member type="way" role="right" ref="525"/>
    <tag k="type" v="lanelet"/>
    <tag k="subtype" v="road"/>
    <tag k="speed_limit" v="0.2"/>
    <tag k="location" v="urban"/>
    <tag k="one_way" v="yes"/>
    <tag k="turn_direction" v="straight"/>
  </relation>
  <relation id="530">
    <member type="way" role="left" ref="220"/>
    <member type="way" role="right" ref="528"/>
    <tag k="type" v="lanelet"/>
    <tag k="subtype" v="road"/>
    <tag k="speed_limit" v="0.2"/>
    <tag k="location" v="urban"/>
    <tag k="one_way" v="yes"/>
  </relation>
  <relation id="547">
    <member type="way" role="left" ref="542"/>
    <member type="way" role="right" ref="532"/>
    <tag k="type" v="lanelet"/>
    <tag k="subtype" v="road"/>
    <tag k="speed_limit" v="0.2"/>
    <tag k="location" v="urban"/>
    <tag k="one_way" v="yes"/>
    <tag k="turn_direction" v="right"/>
  </relation>
  <relation id="557">
    <member type="way" role="left" ref="127"/>
    <member type="way" role="right" ref="549"/>
    <tag k="type" v="lanelet"/>
    <tag k="subtype" v="road"/>
    <tag k="speed_limit" v="0.2"/>
    <tag k="location" v="urban"/>
    <tag k="one_way" v="yes"/>
  </relation>
  <relation id="558">
    <member type="way" role="left" ref="124"/>
    <member type="way" role="right" ref="556"/>
    <tag k="type" v="lanelet"/>
    <tag k="subtype" v="road"/>
    <tag k="speed_limit" v="0.2"/>
    <tag k="location" v="urban"/>
    <tag k="one_way" v="yes"/>
  </relation>
  <relation id="567">
    <member type="way" role="left" ref="563"/>
    <member type="way" role="right" ref="560"/>
    <tag k="type" v="lanelet"/>
    <tag k="subtype" v="road"/>
    <tag k="speed_limit" v="0.2"/>
    <tag k="location" v="urban"/>
    <tag k="one_way" v="yes"/>
    <tag k="turn_direction" v="right"/>
  </relation>
  <relation id="572">
    <member type="way" role="left" ref="569"/>
    <member type="way" role="right" ref="571"/>
    <tag k="type" v="lanelet"/>
    <tag k="subtype" v="road"/>
    <tag k="speed_limit" v="0.2"/>
    <tag k="location" v="urban"/>
    <tag k="one_way" v="yes"/>
  </relation>
  <relation id="580">
    <member type="way" role="left" ref="577"/>
    <member type="way" role="right" ref="574"/>
    <tag k="type" v="lanelet"/>
    <tag k="subtype" v="road"/>
    <tag k="speed_limit" v="0.2"/>
    <tag k="location" v="urban"/>
    <tag k="one_way" v="yes"/>
    <tag k="turn_direction" v="right"/>
  </relation>
  <relation id="585">
    <member type="way" role="left" ref="582"/>
    <member type="way" role="right" ref="584"/>
    <tag k="type" v="lanelet"/>
    <tag k="subtype" v="road"/>
    <tag k="speed_limit" v="0.2"/>
    <tag k="location" v="urban"/>
    <tag k="one_way" v="yes"/>
  </relation>
  <relation id="593">
    <member type="way" role="left" ref="587"/>
    <member type="way" role="right" ref="590"/>
    <tag k="type" v="lanelet"/>
    <tag k="subtype" v="road"/>
    <tag k="speed_limit" v="0.2"/>
    <tag k="location" v="urban"/>
    <tag k="one_way" v="yes"/>
    <tag k="turn_direction" v="left"/>
  </relation>
  <relation id="598">
    <member type="way" role="left" ref="597"/>
    <member type="way" role="right" ref="595"/>
    <tag k="type" v="lanelet"/>
    <tag k="subtype" v="road"/>
    <tag k="speed_limit" v="0.2"/>
    <tag k="location" v="urban"/>
    <tag k="one_way" v="yes"/>
  </relation>
  <relation id="601">
    <member type="way" role="left" ref="600"/>
    <member type="way" role="right" ref="599"/>
    <tag k="type" v="lanelet"/>
    <tag k="subtype" v="road"/>
    <tag k="speed_limit" v="0.2"/>
    <tag k="location" v="urban"/>
    <tag k="one_way" v="yes"/>
    <tag k="turn_direction" v="straight"/>
  </relation>
  <relation id="606">
    <member type="way" role="left" ref="605"/>
    <member type="way" role="right" ref="603"/>
    <tag k="type" v="lanelet"/>
    <tag k="subtype" v="road"/>
    <tag k="speed_limit" v="0.2"/>
    <tag k="location" v="urban"/>
    <tag k="one_way" v="yes"/>
  </relation>
  <relation id="611">
    <member type="way" role="left" ref="608"/>
    <member type="way" role="right" ref="610"/>
    <tag k="type" v="lanelet"/>
    <tag k="subtype" v="road"/>
    <tag k="speed_limit" v="0.2"/>
    <tag k="location" v="urban"/>
    <tag k="one_way" v="yes"/>
    <tag k="turn_direction" v="straight"/>
  </relation>
  <relation id="616">
    <member type="way" role="left" ref="613"/>
    <member type="way" role="right" ref="615"/>
    <tag k="type" v="lanelet"/>
    <tag k="subtype" v="road"/>
    <tag k="speed_limit" v="0.2"/>
    <tag k="location" v="urban"/>
    <tag k="one_way" v="yes"/>
  </relation>
  <relation id="621">
    <member type="way" role="left" ref="618"/>
    <member type="way" role="right" ref="620"/>
    <tag k="type" v="lanelet"/>
    <tag k="subtype" v="road"/>
    <tag k="speed_limit" v="0.2"/>
    <tag k="location" v="urban"/>
    <tag k="one_way" v="yes"/>
    <tag k="turn_direction" v="straight"/>
  </relation>
  <relation id="626">
    <member type="way" role="left" ref="623"/>
    <member type="way" role="right" ref="625"/>
    <tag k="type" v="lanelet"/>
    <tag k="subtype" v="road"/>
    <tag k="speed_limit" v="0.2"/>
    <tag k="location" v="urban"/>
    <tag k="one_way" v="yes"/>
  </relation>
  <relation id="636">
    <member type="way" role="left" ref="628"/>
    <member type="way" role="right" ref="631"/>
    <tag k="type" v="lanelet"/>
    <tag k="subtype" v="road"/>
    <tag k="speed_limit" v="0.2"/>
    <tag k="location" v="urban"/>
    <tag k="one_way" v="yes"/>
    <tag k="turn_direction" v="left"/>
  </relation>
  <relation id="641">
    <member type="way" role="left" ref="638"/>
    <member type="way" role="right" ref="640"/>
    <tag k="type" v="lanelet"/>
    <tag k="subtype" v="road"/>
    <tag k="speed_limit" v="0.2"/>
    <tag k="location" v="urban"/>
    <tag k="one_way" v="yes"/>
  </relation>
  <relation id="645">
    <member type="way" role="left" ref="643"/>
    <member type="way" role="right" ref="644"/>
    <tag k="type" v="lanelet"/>
    <tag k="subtype" v="road"/>
    <tag k="speed_limit" v="0.2"/>
    <tag k="location" v="urban"/>
    <tag k="one_way" v="yes"/>
    <tag k="turn_direction" v="straight"/>
  </relation>
  <relation id="650">
    <member type="way" role="left" ref="648"/>
    <member type="way" role="right" ref="649"/>
    <tag k="type" v="lanelet"/>
    <tag k="subtype" v="road"/>
    <tag k="speed_limit" v="0.2"/>
    <tag k="location" v="urban"/>
    <tag k="one_way" v="yes"/>
    <tag k="turn_direction" v="right"/>
  </relation>
</osm>
